office_name	longitude	latitude	streetname	streetnum	city	zipcode
San Antonio	NULL	NULL	Galaxy Dr	154	San Antonio	78227
Dallas	-96.945892000000	32.624969000000	Nutmeg	7155	Dallas	75249
Houston Central	-95.565696716309	30.469800949097	Sunfish Road	15639	Willis	77318
Denton	-97.227600000000	32.996231000000	Walnut	208	Roanoke	76262
Fort Worth	-97.371475219700	32.697677612300	Shelby	3632	Fort Worth	76109
Fort Worth	-97.378097534200	32.770828247100	Edgefield	801	Fort Worth	76107
Dallas	-97.097709655800	33.156269073500	Andalusian	3415	Denton	76210
Fort Worth	-96.651657104500	32.747268676800	Cedar Mountain	9911	Dallas	75217
San Antonio	-98.454307556152	29.397705078125	KAYTON AVE	1001	San Antonio	78210
San Antonio	-98.605431000000	29.504587000000	DASHWOOD	7719	San Antonio	78240
Dallas	-96.960922241200	32.810478210400	4th	1212	Irving	75060
San Antonio	-98.501167297363	29.465063095093	ROSEWOOD AVE	503	San Antonio	78212
Dallas	-96.652984619100	32.740989685100	Red Cloud	1632	Dallas	75217
San Antonio	-98.472740000000	29.431749000000	Lamar	511	San Antonio	78202
San Antonio	-98.493621826172	29.335157394409	EMMETT AVE	523	San Antonio	78221
Fort Worth	-97.788732647900	32.763197198500	Mill	408	Weatherford	76086
San Antonio	-98.447349548340	29.501754760742	Larkwood	614	San Antonio	78209
San Antonio	-98.503227233887	29.453563690186	Mistletoe Ave	610	San Antonio	78212
Fort Worth	-96.685890197800	33.024711608900	Redbud	2110	PLANO	75074
Dallas	-96.836387634300	32.917945861800	Rickover	4244	Dallas	75244
Fort Worth	-96.951744079600	33.395111084000	Liberty	567	Pilot Point	76258
Denton	-96.881271362300	33.098541259800	Pruitt	5109	The Colony	75056
Dallas	-96.680404663100	32.824901580800	Healey	2106	Dallas	75228
Fort Worth	-97.378479003900	32.749969482400	Mattison	4056	Fort Worth	76107
Dallas	-96.858749389600	32.888092041000	Merrell	3605	Dallas	75229
Atlanta	-84.261722000000	33.730839900000	Rosewood	2032	Decatur	30032
Atlanta	-84.236116000000	33.752373900000	Austin	1376	Decatur	30032
Atlanta	-84.258712768555	33.821331024170	GABLEWOOD	3188	Decatur	30033
Atlanta	-84.305669000000	33.732638900000	Delphine	2007	Decatur	30032
Fort Worth	-97.380615234375	32.649257659912	El Toro	6450	Fort Worth	76133
San Antonio	-98.540184020996	29.454532623291	Craig Pl	2619	San Antonio	78228
Houston Central	-95.470070000000	29.659883000000	Kinglet	5115	Houston	77035
San Antonio	-98.446678161621	29.631807327271	OAK PEAK	2131	San Antonio	78259
Fort Worth	-97.071853637695	32.725135803223	Mitchell	2131	Arlington	76010
San Antonio	-98.571877000000	29.475540000000	ROLLING GREEN DR	135	San Antonio	78228
Fort Worth	-97.381813049316	32.677104949951	Whitfield	4116	Fort Worth	76109
Fort Worth	-97.381058000000	32.731197000000	Lovell	4210	Fort Worth	76107
Atlanta	-84.260864257812	33.863834381104	Rangewood	2645	Atlanta	30345
Atlanta	-84.326889038086	33.740821838379	Wilkinson	420	Atlanta	30317
Fort Worth	-97.342522000000	32.708748000000	Ryan	2921	Fort Worth	76110
Houston Central	-95.536163330078	29.569917678833	Fountain Valley	2126	Missouri City	77459
Atlanta	-84.299659729004	33.738040924072	Daniel	531	Decatur	30032
Dallas	-96.858810000000	32.885014000000	Timber Trail	10218	Dallas	75229
San Antonio	-98.656677246094	29.488285064697	TIMBERWILDE ST	8727	San Antonio	78250
Fort Worth	-97.390709000000	32.795815000000	Macie	4800	Fort Worth	76114
Denton	-96.892944000000	32.982285000000	Canterbury	2500	Carrollton	75006
Los Angeles	-118.119736000000	34.105747000000	El Molino	529	Alhambra	91801
San Antonio	-98.417183000000	29.512920000000	STARHILL DR	3939	San Antonio	78218
Houston Central	-95.369628000000	29.717479000000	Southmore	3102	Houston	77004
Houston Central	-95.184036000000	29.687915000000	Effie	1602	Pasadena	77502
San Antonio	-98.466552734375	29.426603317261	Dawson	1033	San Antonio	78202
San Antonio	-98.565918000000	29.490225000000	CRESTRIDGE DR	3906	San Antonio	78229
San Antonio	-98.456139000000	29.408689000000	VINE ST	210	San Antonio	78210
Fort Worth	-97.234482000000	32.879478000000	Fair Meadows	6753	North Richland Hills	76182
Los Angeles	-118.105759000000	34.154686000000	Villa	2165	Pasadena	91107
Houston Central	-95.469734000000	30.147005000000	Yellowood Ct	3	The Woodlands	77380
Fort Worth	-97.175689697266	32.813770294189	Hurstview	313	Hurst	76053
Dallas	-96.879944000000	33.003460000000	Barton	3113	Carrollton	75007
Houston Central	-95.064377000000	29.568871000000	Shirleen Dr	307	Pasadena	77586
San Antonio	-98.499637395144	29.463974833488	Hollywood Ave	412	San Antonio	78212
Fort Worth	-97.315994000000	32.788307000000	Bluebird	2020	Fort Worth	76111
Dallas	-96.779137000000	32.952518000000	Tophill	7443	Dallas	75248
Atlanta	-84.289001464844	33.811176300049	Willivee	1281	Decatur	30033
Houston Central	-95.544441000000	29.694319000000	Hendon	9039	Houston	77036
Houston Central	-95.537345886230	29.976919174194	Belinda Court	13619	Houston	77069
Atlanta	-84.371536000000	33.871490000000	Chateaugay	495	Atlanta	30342
Los Angeles	-117.806617736820	33.770603179932	Vale	18682	Santa Ana	92705
Los Angeles	-118.158119000000	34.175720000000	Newport	1744	Pasadena	91103
Fort Worth	-97.391945000000	32.344032000000	FEATHERSTON	308	Cleburne	76033
Los Angeles	-118.032351000000	34.168773000000	Santa Anita	2161	Sierra Madre	91024
Atlanta	-84.445373535156	33.738948822021	Westwood	1761	Atlanta	30310
Fort Worth	-97.275352000000	32.816746000000	Vicki	4929	Haltom City	76117
Fort Worth	-97.141205000000	32.672768000000	Riverforest	2007	Arlington	76017
Atlanta	-84.251869201660	33.876583099365	Medinah	3016	Chamblee	30341
Philadelphia	-75.157024800000	39.930252800000	DICKINSON	702	PHILADELPHIA	19147
Los Angeles	-118.016075000000	33.960850000000	Tedemory	14429	Whittier	90605
Dallas	-96.911392000000	32.635204000000	Cardinal Creek	1427	Duncanville	75137
Atlanta	-84.298355102539	33.813518524170	Hill Park	2223	Decatur	30033
Atlanta	-84.563194000000	33.860645000000	Herren	3829	Smyrna	30082
Atlanta	-84.300094604492	33.549209594727	Old South	7505	Jonesboro	30236
Houston Central	-95.578062000000	29.738389000000	WICKERSHAM LN	11415	HOUSTON	77077
Houston Central	-95.674774000000	29.698954000000	Espinosa	16330	HOUSTON	77083
Atlanta	-84.320236000000	33.714417000000	BRANNEN	2093	Atlanta	30316
San Antonio	-98.426010000000	29.574848000000	JENKINS DR	3219	San Antonio	78247
Fort Worth	-97.541466000000	32.898693000000	Inwood	408	Azle	76020
Fort Worth	-97.397781000000	32.341385000000	Featherston	802	Cleburne	76033
Fort Worth	-97.284882000000	32.815754000000	Eastridge	3612	Haltom City	76117
Atlanta	-84.262062072754	33.818630218506	Flamingo	3143	Decatur	30033
Atlanta	-84.426315307617	33.741111755371	Oak Street	1177	Atlanta	30310
Los Angeles	-117.860359000000	34.060371000000	Buenos Aires	2349	Covina	91724
San Antonio	-98.413200378418	29.492595672607	TROPICAL DR	4107	San Antonio	78218
San Antonio	-98.452759000000	29.497286000000	RIDGEHAVEN PL	327	San Antonio	78209
San Antonio	-98.670967000000	29.528824000000	Autumn Shade	9542	San Antonio	78254
Philadelphia	-75.158040001988	39.930965602398	S 8th	1430	Philadelphia	19147
Philadelphia	0.000000000000	0.000000000000	MERCY	415	PHILADELPHIA	19148
Houston Central	-95.492523000000	29.658812000000	HILLCROFT ST	11102	HOUSTON	77096
Fort Worth	-96.869652000000	33.097168000000	Ramsey	5541	The Colony	75056
Dallas	-96.620506286621	33.144584655762	Sloan	1120	Fairview	75069
Fort Worth	-97.220459000000	32.757816000000	Warrington	6404	Fort Worth	76112
Dallas	-96.692841000000	33.032917000000	Laurel	1508	Plano	75074
Dallas	-96.755974000000	32.841518000000	Saint Albans	6253	Dallas	75214
San Antonio	-98.548203000000	29.448586000000	WAVERLY AVE	2215	San Antonio	78228
Fort Worth	-97.099960000000	32.689281000000	Kilrush	3437	Arlington	76014
San Antonio	-98.666298000000	29.413479000000	Fort Henry Dr	1814	San Antonio	78245
Fort Worth	-97.230995000000	32.750607000000	Monterrey	5740	Fort Worth	76112
San Antonio	-98.381958000000	29.512346000000	FENWICK	426	Windcrest	78239
Los Angeles	-118.330933000000	34.058216000000	MUIRFIED	925	Los Angeles	90019
San Antonio	-98.555733000000	29.463892000000	Oriole Ln	231	San Antonio	78228
Fort Worth	-97.443474000000	32.801880000000	Pawnee	7205	Lake Worth	76135
Dallas	-96.723717000000	32.991604000000	Brook Glen	419	Richardson	75080
Fort Worth	-97.119995000000	32.686222000000	Headwater	800	Arlington	76015
Los Angeles	-118.175194000000	34.152798000000	Mooresque	414	Pasadena	91105
Atlanta	-83.996803283691	34.008029937744	waters ferry dr	1940	Lawrenceville	30043
San Antonio	-98.484882000000	29.399361000000	Grove	315	San Antonio	78210
Dallas	-96.802834000000	32.957832000000	Yellow Rock	6030	Dallas	75248
Los Angeles	-117.206596000000	33.699977000000	Ridgemoor	25978	Sun City	92586
Fort Worth	-97.372688293457	32.675834655762	Overton	4812	Fort Worth	76103
Atlanta	-84.423508000000	33.683372000000	Blount	2629	East Point	30344
Fort Worth	-97.370255000000	32.754414000000	4th	3576	Fort Worth	76107
Fort Worth	-97.392746000000	32.341694000000	Smith	504	Cleburne	76033
Fort Worth	-97.474586000000	32.674068000000	Lochness	317	Benbrook	76126
San Antonio	-98.503227000000	29.458393000000	SUMMIT AVE	610	San Antonio	78212
Dallas	-96.705841064453	32.788600921631	Ashbrook	5217	Dallas	75227
Dallas	-96.869698000000	32.584934000000	Priscilla	633	DeSoto	75115
Fort Worth	-97.251144000000	32.748005000000	Montclair	2013	Fort Worth	76103
San Antonio	-98.525101000000	29.453089000000	CRAIG PL	1727	San Antonio	78201
Los Angeles	-118.306213000000	33.868000000000	La Salle	17911	Gardena	90248
Fort Worth	-97.423569000000	32.739697000000	Dakar	1917	Fort Worth	76116
Atlanta	-84.486717224121	34.072891235352	Ravenwood	2263	Marietta	30066
Houston Central	-95.155312000000	29.814308000000	Mountain Mist Trl	15835	Houston	77049
Los Angeles	-117.451698000000	33.925320000000	Acacia	4145	Riverside	92503
Dallas	-96.759575000000	32.942383000000	Dearborn	1219	Richardson	75080
Atlanta	-84.429016113281	34.048908233643	Loch Highland	4225	Roswell	30075
San Antonio	-98.441315000000	29.374437000000	Dollarhide	1111	San Antonio	78223
Dallas	-96.879562377930	32.921253204346	Randy	2939	Farmers Branch	75234
Fort Worth	-96.867882000000	32.991604000000	Seedling	2623	Dallas	75287
Dallas	-96.891082763672	32.960079193115	Hood	1837	Carrollton	75006
Atlanta	-84.267494201660	33.746795654297	Pasadena	2998	Decatur	30032
San Antonio	-98.361008000000	29.471796000000	HIGHLAND FARM	4803	San Antonio	78244
Atlanta	-84.158333000000	33.733490000000	Saint Thomas	5645	Lithonia	30058
Fort Worth	-97.430404663086	32.741016387939	Granada	1816	Fort Worth	76116
Dallas	-96.869408000000	32.887173000000	Camelot	3219	Dallas	75229
Dallas	-96.763863000000	32.945992000000	Dublin	608	Richardson	75080
Los Angeles	-118.374565000000	34.139137000000	SUNSHINE	11268	Studio City	91604
Fort Worth	-97.411377000000	32.735302000000	Littlepage	2517	Fort Worth	76107
Los Angeles	-117.343055000000	33.636249000000	Tetterington	33100	Lake Elsinore	92530
Atlanta	-84.173950195312	33.729221343994	Scarborough	2106	Stone Mountain	30088
Houston Central	-95.571587000000	29.946314000000	Mill Trail	11802	Houston	77070
Philadelphia	0.000000000000	0.000000000000	MELROSE	124	LANSDOWNE	19050
Los Angeles	-117.820625000000	33.640224000000	Bethany	13	Irvine	92603
Houston Central	-95.506446838379	29.823181152344	greiner rd	8710	houston	77080
Houston Central	-95.470764000000	29.825525000000	Poinciana	5319	Houston	77092
Fort Worth	-97.358609000000	32.671526000000	Covert	2817	Fort Worth	76133
Houston Central	-95.653580000000	29.695372000000	Gran Vista	15122	Houston	77083
Atlanta	-84.332237243652	33.716098785400	ROLLINGWOOD	2728	Atlanta	30316
Atlanta	-84.599250793457	33.799293518066	Jacqueline Cir	1520	Austell	30168
Fort Worth	-97.233131000000	32.829094000000	Briley	6903	North Richland Hills	76180
Philadelphia	-75.192199707031	40.012107849121	NEW QUEEN	3547	PHILADELPHIA	19129
Fort Worth	-97.380859375000	32.728759765625	Donnelly	4205	Fort Worth	76107
Dallas	-96.895424000000	32.667351000000	Caravan	1135	Duncanville	75116
Dallas	-96.701339000000	32.881782000000	Mapleridge	10632	Dallas	75238
Fort Worth	-97.364082000000	32.656937000000	Wayland	3309	Fort Worth	76133
Fort Worth	-97.284866000000	32.804279000000	Eastridge	3400	Haltom City	76117
Fort Worth	-97.344154000000	32.709167000000	8th	2904	Fort Worth	76110
Fort Worth	-96.615730000000	32.871780000000	Colonial	634	Garland	75043
Atlanta	-84.486831000000	33.636325900000	Yates	4383	College Park	30337
Dallas	-96.652473000000	33.108486000000	Lake Highlands	708	Allen	75002
Dallas	-96.879234000000	32.979763000000	El Dorado	2139	Carrollton	75006
Fort Worth	-97.263618000000	32.803848000000	Ezell	5613	Haltom City	76117
Houston Central	-95.189842000000	29.539778000000	Edenvale	15619	Friendswood	77546
Fort Worth	-97.179443000000	32.708031000000	Ramsgate	4606	Arlington	76013
Fort Worth	-97.267654000000	32.669514000000	Orchard	3804	Forest Hills	76119
Atlanta	-84.617256164551	33.953624725342	Rock Garden	190	Marietta	30064
Los Angeles	-118.453285000000	34.207794000000	Covello	14701	Van Nuys	91405
Philadelphia	0.000000000000	0.000000000000	MOEWYN	1	HAVERTOWN	19083
Fort Worth	-97.359466000000	32.679161000000	W. Fuller	2909	Fort Worth	76133
Los Angeles	-118.186180000000	34.087779000000	Oak Hill	3624	Montecito Heights	90032
Denton	-96.880340000000	33.100997000000	Sherman	5148	The Colony	75056
Fort Worth	-97.337623596191	32.711692810059	Ryan Place	2745	Fort Worth	76110
Los Angeles	-118.151824951170	34.182456970215	El Sereno	2134	Altadena	91001
Houston Central	-95.469787000000	30.147647000000	Yellowood Ct	2	The Woodlands	77380
Houston Central	-95.478889000000	29.835533000000	Verdome	6014	Houston	77092
Los Angeles	-118.058990000000	34.120583000000	Golden West	6628	Arcadia	91007
Los Angeles	-117.702857000000	33.589916000000	Via Lomas	25783	LAGUNA HILLS	92653
Philadelphia	-75.288555959200	39.919696714300	STRATFORD	35	ALDAN	19018
Houston Central	-95.453155000000	29.677347000000	Sarong	4434	Houston	77096
Los Angeles	-118.404037000000	34.111568000000	COLDWATER CANYON	2180	Beverly Hills	90210
San Antonio	-98.503539000000	29.451692000000	CRAIG PL	616	San Antonio	78212
San Antonio	-98.566810000000	29.480466000000		0	San Antonio	78228
Houston Central	-95.774909973145	29.764383316040	Diamond Knoll	23239	KATY	77494
San Antonio	-98.527511596680	29.347339630127	DRURY LN	1422	San Antonio	78221
Houston Central	-95.383821000000	29.807310000000	23rd	1124	Houston	77009
Dallas	-96.688140869141	32.790779113770	Rolling Fork	7178	Dallas	75227
Austin	0.000000000000	0.000000000000	Grover	5909	Austin	78757
Los Angeles	-117.804992000000	33.745712000000	Keith	12962	Tustin	92780
Houston Central	-95.766128540039	29.776802062988	Hockaday	22806	Katy	77450
Philadelphia	0.000000000000	0.000000000000	GLADSTONE	1818	PHILADELPHIA	19145
Dallas	-96.641769000000	32.774578000000	Whippoorwill	2635	Mesquite	75149
San Antonio	-98.539204000000	29.516701000000	KERRYBROOK CT	2719	San Antonio	78230
San Antonio	-98.535683000000	29.456806000000	Magnolia Ave	2218	San Antonio	78201
Los Angeles	-118.075515000000	33.776847000000	Yellowtail	3232	Rossmoor	90720
San Antonio	-98.440086000000	29.467672000000	Hathaway	442	San Antonio	78209
Houston Central	-95.348335000000	29.543685000000	Duesenberg	4435	Pearland	77584
Atlanta	-84.529373168945	33.948688507080	mimosa	782	marietta	30064
Houston Central	-95.457603454590	29.837287902832	Blanton Blv	4810	Houston	77092
Houston Central	-95.365356000000	29.718669000000	Arbor St	3226	Houston	77004
Los Angeles	-118.196639000000	34.063281500000	Medford	2414	Los Angeles	90033
San Antonio	-98.320655822754	29.573530197144	Aries	8416	Selma	78154
Dallas	-96.969749000000	32.785659000000	Ruby	1941	Irving	75060
Fort Worth	-1.000000000000	-1.000000000000	Slay	7865	Fort Worth	76135
Dallas	-96.779708862305	32.929954528809	Rolling Hillls	13215	Dallas	75240
Houston Central	-95.539062500000	30.026998519897	Comoro Ln	17618	Spring	77379
Los Angeles	-118.552009582520	34.171672821045	Sylvia	5526	Tarzana	91356
San Antonio	-98.460266000000	29.508945000000	Camellia	75	San Antonio	78209
San Antonio	-98.409652000000	29.483310000000	Renault	4318	San Antonio	78218
San Antonio	0.000000000000	0.000000000000	ROBINHOOD	205	San Antonio	78209
Atlanta	-84.409492000000	34.019660000000	Sturbridge Crescent NE	4841	roswell	30075
Houston Central	-95.541813000000	30.022860000000	Northbridge Circle	8014	Spring	77379
Fort Worth	-97.086013000000	32.711864000000	Glynn Oaks	1606	ARLINGTON	76010
Fort Worth	-97.169189000000	32.865028000000	Woodbine	200	Colleyville	76034
Dallas	-96.613494000000	32.860744000000	Thistle	305	Garland	75043
Los Angeles	-118.118501000000	33.794523000000	Radnor	2120	Long Beach	90815
Houston Central	-95.242103000000	30.037664000000	Chestnut Ridge	1418	Humble	77339
Houston Central	-95.592582702637	29.955821990967	Mill Ridge Dr	12511	Cypress	77429
San Antonio	-98.536216000000	29.456380000000	Mistletoe	2237	San Antonio	78201
Fort Worth	-97.110115000000	32.827537000000	Marlene	1705	Euless	76040
Houston Central	-95.179283000000	30.073286000000	Mountain Peak	4239	Kingwood	77345
Fort Worth	-97.208679000000	32.734786000000	Routt	7009	Fort Worth	76112
San Antonio	-98.437553000000	29.528486000000	Astronaut	9710	San Antonio	78217
San Antonio	-98.536087000000	29.455657000000	Mistletoe	2224	San Antonio	78201
Philadelphia	0.000000000000	0.000000000000	SIGEL	1739	PHILADELPHIA	19145
Dallas	-97.460060000000	32.716564000000	Chapin	8278	Fort Worth	76116
Atlanta	-84.303688049316	33.700927734375	Reveille	2929	Gresham Park	30316
San Antonio	-98.526565000000	29.458091000000	Mulberry	1824	San Antonio	78201
Fort Worth	-97.109711000000	32.973415000000	Peninsula	2828	Grapevine	76051
Dallas	-96.755706000000	32.900203000000	Westfield	8539	Dallas	75243
San Antonio	-98.470100000000	29.442911000000	Grayson	902	san antonio	78208
Fort Worth	-97.364982000000	32.655994000000	Kelvin	3408	Fort Worth	76133
Dallas	-96.633247375488	32.863109588623	Rollingridge	374	Garland	75043
Los Angeles	-117.212409000000	33.699901000000	Portsmouth	28985	Menifee	92586
Dallas	-96.896934000000	32.973545000000	Dover	2103	Carrollton	75006
Fort Worth	-97.443840026855	32.708683013916	Pensacola	7425	Fort Worth	76116
Houston Central	-95.514251000000	29.975244000000	Old Lodge	5827	Houston	77066
Fort Worth	-97.074821000000	32.723865000000	Miriam	2106	Arlington	76010
Los Angeles	-118.117126000000	34.155139000000	Monte Vista	1614	Pasadena	91106
Houston Central	-95.441535000000	29.802549000000	greengrass	1818	Houston	77008
San Antonio	-98.645477294922	29.402076721191	Buggywhip	7918	san antonio	78201
Houston Central	-95.600448000000	29.755872000000	Carriage Hill Dr	12435	Houston	77077
Philadelphia	-75.152798469400	39.921370571400	WINTON	336	PHILADELPHIA	19148
Houston Central	-95.596771000000	29.579814000000	Winchester	3126	Sugar Land	77479
San Antonio	-98.473602000000	29.432439000000	Burleson St	428	San Antonio	78202
San Antonio	-98.392379000000	29.557384000000	El Sendero	13010	San Antonio	78233
Houston Central	-95.452301000000	29.835912000000	Latexo Dr	2223	Houston	77018
Houston Central	-95.489196777344	29.657499313354	Bellfort	5810	HOUSTON	77035
Houston Central	-95.183509000000	29.526231000000	Timpani	5431	Friendswood	77546
Dallas	-96.690902000000	32.861846000000	Carissa	11111	Dallas	75218
Fort Worth	-97.423843383789	32.732372283936	Darwood	6345	Fort Worth	76116
Fort Worth	-97.312850000000	32.784446000000	Honeysuckle	2305	Fort Worth	76111
Dallas	-96.772438049316	32.906604766846	Malabar	7538	Dallas	75230
Fort Worth	-97.357086000000	32.774013000000	Lagonda	1503	Fort Worth	76164
Philadelphia	-75.161911000000	39.932983000000	S Warnock	1316	Philadelphia	19147
Fort Worth	-97.364059000000	32.787609000000	Chestnut	2317	Fort Worth	76164
San Antonio	-98.607025146484	29.470024108887	Clearbrook	6023	San Antonio	78238
Philadelphia	-75.151939979600	39.917459530600	AMERICAN	2438	PHILADELPHIA	19148
Philadelphia	-75.154060857100	39.918081428600	GLADSTONE	314	PHILADELPHIA	19148
Fort Worth	-97.339393000000	32.654552000000	Rockmoor	1304	Edgecliff Village	76134
Houston Central	-95.726707458496	29.759273529053	Galleon Oaks	1727	Katy	77450
Houston Central	-95.471305000000	29.823995000000	Lamonte	5403	Houston	77092
Fort Worth	-97.064239000000	32.724296000000	Skylark	2507	Arlington	76010
Los Angeles	-118.282272338870	34.035167694092	22nd	1032	Los Angeles	90007
Los Angeles	-118.040641000000	33.946048000000	Maryknoll	9810	Whittier	90605
Philadelphia	-75.224892351400	40.033068864900	RIPKA	316	PHILADELPHIA	19128
Dallas	-96.672622000000	33.173965000000	Hawkins	3909	McKinney	75070
Atlanta	-84.335252100000	33.750408800000	PAXON	1595	Atlanta	30317
Atlanta	-84.332611083984	33.748828887939	Dixie	1679	Atlanta	30317
Atlanta	-84.059753417969	33.774650573730	Riveredge	4824	Snellville	30039
Atlanta	-84.426078000000	33.686534000000	Jewel	2544	East Point	30344
Fort Worth	-96.901245000000	32.624607000000	Blueridge	415	Duncanville	75137
Fort Worth	-96.629493713379	32.859889984131	Meadowhill	413	Garland	75043
Austin	0.000000000000	0.000000000000	Blackmoor	11226	Austin	78759
Fort Worth	-97.091049000000	32.852306000000	Glenn	1103	Euless	76039
Dallas	-96.693397000000	32.851638000000	Rogue	11614	Dallas	75218
Atlanta	-84.424697875977	33.709175109863	Lanier	1681	Atlanta	30310
Atlanta	-84.416389465332	33.698116302490	perkerson	2065	atlanta	30310
San Antonio	-98.653117418289	29.492107853293	Timber Crest	8507	San Antonio	78250
Atlanta	-84.343933105469	33.740833282471	Haas Ave Se	486	Atlanta	30316
Fort Worth	-97.405632000000	32.331028000000	Hilltop	1217	Cleburne	76003
Fort Worth	-97.142372000000	33.227367000000	Emery	1003	Denton	76201
Los Angeles	-117.775009000000	34.051654000000	Meserve	1603	Pomona	91766
Dallas	-96.759407000000	32.971073000000	Melrose	1124	Richardson	75080
Atlanta	-84.350448608398	33.728408813477	Gilbert	952	atlanta	30316
Dallas	-96.544296000000	32.745693000000	Springwood	1430	Mesquite	75181
Fort Worth	-97.309570312500	32.781547546387	Primrose	2524	Fort Worth	76111
Houston Central	-95.536071000000	29.726028000000	Judalon	9619	Houston	77063
Fort Worth	-97.281150817871	32.743034362793	Purington	3027	Fort Worth	76103
San Antonio	-98.457092000000	29.395090000000	AVANT AVE	846	San Antonio	78210
Houston Central	-95.037483000000	29.775793000000	Tanglewood	123	Baytown	77520
Atlanta	-84.453742980957	33.926998138428	terrell crosssing se	752	marietta	30067
Fort Worth	-97.373268000000	32.675216000000	Overton	4828	Fort Worth	76133
Dallas	-96.950699000000	32.623405000000	Sophora	9339	Dallas	75249
Fort Worth	-97.492912000000	32.748863000000	Pilot Point	9909	Fort Worth	76108
Houston Central	-95.389579772949	30.046541213989	Heatherknoll	2710	Spring	77373
Dallas	-97.014984000000	32.755947000000	Blackburn	829	Grand Prairie	75050
San Antonio	-98.663834000000	29.427038000000	LAS PUERTAS	734	San Antonio	78245
San Antonio	-98.458358000000	29.495962000000	Brightwood	414	San Antonio	78209
Houston Central	-95.730308532715	29.624919891357	Plantation Dr	1519	Richmond	77406
San Antonio	-98.686058000000	29.508750000000	Hardesty	7358	San Antonio	78250
San Antonio	-98.681922000000	29.430269000000	THRASHER DR	842	San Antonio	78245
Dallas	-96.812416000000	32.806995000000	Shelby	2710	Dallas	75219
Houston Central	-95.519561767578	30.100637435913	Allentown Dr	6419	Spring	77389
Houston Central	-95.509231000000	29.922309000000	Martin Wood	7831	Houston	77086
Houston Central	-95.563354000000	29.741268000000	Burgoyne	10603	Houston	77042
Philadelphia	-75.120734363600	39.983571181800	SEPVIVA	2643	PHILADELPHIA	19125
Fort Worth	-97.401094000000	32.736151000000	Pershing	5308	Fort Worth	76107
Houston Central	-95.502510000000	29.980461000000	Gaylawood	12711	Houston	77066
San Antonio	-98.395640000000	29.455289000000	Alan Shepard	2615	San Antonio	78219
Atlanta	-84.272666931152	33.814826965332	Blueberry	1166	Decatur	30033
San Antonio	-98.437485000000	29.404774000000	J ST	635	San Antonio	78220
Atlanta	-84.277198000000	33.751617000000	THOMAS	1436	Decatur	30030
Dallas	-96.730003000000	32.902820000000	Atherton	9654	Dallas	75243
Philadelphia	-75.174788346900	39.914667346900	16TH	2804	PHILADELPHIA	19145
Philadelphia	-75.178487408200	39.933860346900	GERRITT	2047	PHILADELPHIA	19146
Houston Central	-95.744705200195	29.771314620972	Park Meadow	707	Katy	77450
Fort Worth	-97.398338000000	32.719024000000	Humbert	5132	Fort Worth	76107
Dallas	-96.704269000000	32.789848000000	Meadowick	5617	Dallas	75227
San Antonio	-97.969769686460	29.565466940403	Mitchell	513	Seguin	78155
Houston Central	-95.493598000000	29.665552000000	Dunlap St	10614	Houston	77096
Dallas	-96.681714000000	32.836869000000	Fern	10361	Dallas	75228
Los Angeles	-117.816697000000	33.730592000000	Quent	14212	Tustin	92780
Houston Central	-95.297821000000	29.567029000000	Francis Dr	2201	Pearland	77581
Atlanta	-84.212974548340	33.952259063721	DOGWOOD	731	Norcross	30071
Dallas	-96.676788000000	32.819923000000	Lockhart	2320	Dallas	75228
Dallas	-96.710777000000	32.942607000000	Windsong	1003	Richardson	75081
Los Angeles	-117.812139000000	33.760651000000	Esplanade	13941	North Tustin	92705
Houston Central	-95.453468000000	29.588167000000	Ridgecreek	4889	Houston	77053
Los Angeles	-118.332878000000	34.108047000000	Whitley	2031	Hollywood	90068
Houston Central	-95.582478940487	29.755009263754	Brooklake Ct	1403	Houston	77077
Houston Central	-95.546684000000	29.817829000000	Riata Ln	2534	Houston	77043
Fort Worth	-97.196647000000	32.751968000000	Yolanda	7428	Fort Worth	76112
Dallas	-96.577187000000	32.748619000000	Virgie Joe	1433	Mesquite	75149
Los Angeles	-117.708153000000	33.633251000000	Wood Lake	22701	Lake Forest	92630
Dallas	-96.835487000000	32.916629000000	Boca Bay	4365	Dallas	75244
Los Angeles	-117.363739000000	34.002243000000	Main	1580	Riverside	92501
San Antonio	-98.556732000000	29.455867000000	OVERHILL DR	114	San Antonio	78228
Dallas	-96.769462000000	33.050701000000	Davis	3916	Plano	75023
Houston Central	-95.549980163574	29.983358383179	Roebourne Ln	7515	Houston	77070
Fort Worth	-97.393821716309	32.767494201660	Frontier	508	River Oaks	76114
Houston Central	-95.506744000000	29.966421000000	Lorinowoods	5705	Houston	77066
Fort Worth	-97.207496000000	32.650180000000	Harrison	913	Fort Worth	76060
Fort Worth	-97.342124000000	32.801704000000	N Harding	3203	Fort Worth	76106
San Antonio	-98.533302307129	29.444538116455	Laurel St	2226	San Antonio	78201
Dallas	-96.982475280762	32.843978881836	Rochelle	2712	Irving	75062
Dallas	-96.694000000000	32.805854000000	Grumman	8523	Dallas	75228
Fort Worth	-96.892204000000	33.014156000000	Cemetery Hill	3811	Carrollton	75007
Dallas	-96.736587000000	32.850299000000	Haverford	7335	Dallas	75214
Philadelphia	-75.160176632700	39.923575102000	MILDRED	2034	PHILADELPHIA	19148
Fort Worth	-97.407341000000	32.723312000000	Bonnell	5625	Fort Worth	76107
Fort Worth	-97.199358000000	32.810796000000	Crestview	1212	Hurst	76053
Fort Worth	-97.310371000000	32.782207000000	Primrose	2509	Fort Worth	76111
San Antonio	-98.513686000000	29.450899000000	French	1319	San Antonio	78201
Houston Central	-95.590507000000	29.780971000000	Myrtlea	14002	Houston	77079
Philadelphia	-75.170674204100	39.932625122400	MOLE	1446	PHILADELPHIA	19146
Dallas	-96.738006000000	32.850238000000	Bennington	7309	Dallas	75214
Dallas	-97.513099670410	32.929206848145	Hill	6835	Azle	76020
Houston Central	-95.479515000000	29.844621000000	Birchmont Dr	6022	Houston	77092
Atlanta	-84.534019000000	33.948497000000	Merritt	139	Marietta	30060
Fort Worth	-97.162002000000	32.716773000000	Country Club	3313	Pantego	76013
Los Angeles	-118.172615000000	33.828868000000	Roosevelt	1530	Long Beach	90807
Austin	0.000000000000	0.000000000000	Beckett	7105	Austin	78749
Philadelphia	-75.171531677246	39.933166503906	BANCROFT	1407	PHILADELPHIA	19146
San Antonio	-98.520423173904	29.454481825233	MISTLETOE AVE	1551	San Antonio	78201
Fort Worth	-97.260147000000	32.869743000000	Yorkston	6945	Watauga	76148
San Antonio	-98.485824000000	29.449546000000	Terry	157	San Antonio	78212
Dallas	-96.634933000000	32.929332000000	Lucinda	410	Garland	75040
Fort Worth	-96.883895000000	33.022331000000	Vista Oaks	1921	Carrollton	75007
Dallas	-96.945762634277	32.851432800293	Bryn Mawr	3708	Irving	75062
Houston Central	-95.743019000000	29.771055000000	Park Downe	21318	Houston	77450
Fort Worth	-97.345840000000	32.720829000000	Stanley	2131	Fort Worth	76110
Los Angeles	-117.995964000000	34.162265000000	Canyon	469	Monrovia	91016
Dallas	-96.785652000000	32.972255000000	Flintcove	6925	Dallas	75248
San Antonio	-98.548248000000	29.468427000000	SHADWELL DR	440	San Antonio	78228
Atlanta	-84.320838928223	33.746376037598	memorial	2029	Atlanta	30317
Dallas	-96.736419000000	32.901679000000	Windcrest	9111	Dallas	75243
Fort Worth	-97.282859000000	32.767425000000	Goddard	4405	Fort Worth	76111
Houston Central	-95.731636047363	29.612493515015	Winston Homestead	1615	Richmond	77406
Fort Worth	-96.812362670898	32.682888031006	Glen Arbor	822	Dallas	75241
Fort Worth	-97.132209777832	32.819232940674	Paula	1213	Euless	76040
Houston Central	-95.561866000000	29.887701000000	Jersey Dr	15905	Houston	77040
Houston Central	-95.356819152832	30.046220779419	Glendower Dr	4819	Spring	77373
Dallas	-96.533721923828	32.886043548584	Baylor	2601	Rowlett	75088
Houston Central	-95.430183000000	29.697599000000	Merrick	3514	Houston	77025
Fort Worth	-97.208084106445	32.736213684082	Craig	7012	Fort Worth	76112
Fort Worth	-97.375915000000	32.740692000000	Dexter	3920	fort worth	76107
Fort Worth	-97.230581000000	32.835636000000	Vance	4513	North Richland Hills	Tarra
Dallas	-96.744796000000	32.860328000000	Kingsbury	6827	Dallas	75231
Philadelphia	-75.299209000000	39.952945000000	TURNER	719	DREXEL HILL	19026
Los Angeles	-117.934745000000	33.657718000000	Joann	858	Costa Mesa	92627
San Antonio	0.000000000000	0.000000000000	DEER HORN DR	6010	San Antonio	78238
Fort Worth	-97.366851000000	32.661060000000	Denbury	3436	Fort Worth	76133
San Antonio	-98.518112000000	29.524393000000	Roleto	106	San Antonio	78213
Dallas	-96.801071166992	32.920883178711	Sunlight	12649	Dallas	75230
Fort Worth	-97.391716000000	32.664127000000	Walraven	5801	Fort Worth	76133
Houston Central	-95.591590000000	29.740961000000	Silver Sage Dr	2235	Houston	77077
Dallas	-96.824989000000	32.750850000000	Elsbeth	700	Dallas	75208
Fort Worth	-97.467664000000	32.819001000000	Ella Young	8017	Fort Worth	76135
Fort Worth	-97.382125000000	32.742927000000	Tremont	1709	Fort Worth	76107
Dallas	-96.771743000000	32.947727000000	Overview	14554	Dallas	75254
Atlanta	-84.274986000000	33.771804000000	livingstone	792	decatur	30030
San Antonio	-98.603945000000	29.477521000000	LIGHTNING	4615	San Antonio	78238
San Antonio	-98.344131000000	29.512670000000	Glen	7203	San Antonio	78239
Houston Central	-95.520294189453	30.113136291504	Larkmount Dr	6506	Spring	77389
Dallas	-96.766471000000	33.040287000000	Saddlehead	3812	Plano	75075
Houston Central	-95.617538452148	29.998119354248	Marron Dr	12918	Cypress	77429
Dallas	-96.703712000000	32.879726000000	Lanward	9727	Dallas	75238
Atlanta	-84.289894104004	33.914546966553	Parson	4133	Chamblee	30341
Philadelphia	-75.149411818200	40.056666272700	OGONTZ	6708	PHILADELPHIA	19126
Philadelphia	-75.282526320600	39.885757247700	KENT	2010	FOLCROFT	19032
Houston Central	-95.173885000000	29.540814000000	Sheet Bend Way	16706	Friendswood	77546
Philadelphia	-75.284735058800	39.884051988200	TAYLOR	1035	FOLCROFT	19032
Philadelphia	-75.305394000000	39.956955000000	EDMONDS	901	DREXEL HILL	19026
Fort Worth	-97.383857000000	32.662418000000	Wessex	5612	Fort Worth	76133
Fort Worth	-97.375877000000	32.768894000000	Wildwood	3709	Fort Worth	76107
Fort Worth	-97.376205000000	32.772994000000	Bailey	837	Fort Worth	76107
Atlanta	-84.320770000000	33.701599000000	w caribea trail	1689	atlanta	30316
Atlanta	-84.304111300000	33.697907900000	Gresham	2899	Atlanta	30316
Atlanta	-84.249214172363	33.739898681641	glensford	3449	decatur	30032
Fort Worth	-97.323287963867	32.692287445068	Jones	3836	Fort Worth	76110
San Antonio	0.000000000000	0.000000000000	FRENCH PL	917	San Antonio	78212
Philadelphia	-75.347679000000	39.935798000000	WYNNE	607	SPRINGFIELD	19064
Dallas	-96.772956000000	32.794940000000	Junius	4318	Dallas	75246
Austin	0.000000000000	0.000000000000	Bending Bough	11200	Austin	78758
Los Angeles	-118.159019470210	33.977283477783	Lanto	5901	Bell Gardens	90201
Houston Central	-95.633064000000	29.846139000000	ECHO CANYON DR	15715	HOUSTON	77084
Dallas	-96.787399000000	32.900821000000	Midbury	6926	Dallas	75230
Fort Worth	-97.323290000000	32.692423000000	Jones	3832	Fort Worth	76110
Austin	0.000000000000	0.000000000000	Russet Valley	706	Cedar Park	78613
Dallas	-96.774391000000	32.953792000000	Chattington	7722	Dallas	75248
Fort Worth	-97.389114000000	32.657928000000	Wonder	6088	Fort Worth	76133
Houston Central	-95.365257000000	29.726936000000	Isabella St	2810	Houston	77004
Houston Central	-95.431213000000	29.798997000000	Tannehill	1718	Houston	77008
Fort Worth	-97.238204000000	32.811813000000	Reeves	6700	Richland Hills	76118
Houston Central	-95.625000000000	29.953292846680	Shaft Dr	13335	Cypress	77429
Atlanta	-84.609313000000	34.033344000000	Tara	3278	Kennesaw	30144
San Antonio	-98.379783000000	29.598287000000	Vista Oaks	17115	San Antonio	78247
Houston Central	-95.607200622559	29.997131347656	Bowing Oaks Dr	12810	Cypress	77429
Atlanta	-84.276588439941	33.733627319336	Willa Way	1956	Decatur	30032
Los Angeles	-117.937644000000	33.620674000000	44th	204	Newport Beach	92663
Fort Worth	-97.185440000000	32.842437000000	Pleasantview	737	Hurst	76054
Houston Central	-95.548400878906	30.025932312012	Colonial Oaks Ln	8207	Spring	77379
San Antonio	0.000000000000	0.000000000000	Ridgewood Ct	1001	San Antonio	78201
Houston Central	-95.542228000000	29.789403000000	Larston St	10034	Houston	77055
Houston Central	-95.062461853027	29.583898544312	Lake Grove Dr.	4218	Seabrook	77586
Fort Worth	-97.444740295410	32.674846649170	High Ridge	1420	Benbrook	76126
Dallas	-96.683029000000	32.836616000000	Fern	10325	Dallas	75228
Houston Central	-95.623245239258	29.938478469849	Beauvoir	11226	Houston	77065
Dallas	-96.579429000000	32.772121000000	Snapdragon	619	Mesquite	75149
Los Angeles	-117.441680000000	33.944225000000	Toyon	4711	Riverside	92504
Fort Worth	-97.365539000000	32.655170000000	Wedgworth	3504	Fort Worth	76133
Fort Worth	-97.186614990234	32.680755615234	Dufferin	5106	Arlington	76016
Los Angeles	-117.818084716800	33.779228210449	Prospect	567	Orange	92869
Dallas	-96.625312805176	32.874511718750	Duke	406	Garland	75043
Fort Worth	-97.381202000000	32.655059000000	Wester	6040	Fort Worth	76133
Dallas	-96.787384000000	32.968906000000	Robin Willow	6935	Dallas	75248
Houston Central	-95.175672000000	30.065817000000	Brook Shadow	4211	Kingwood	77345
Fort Worth	-97.269836425781	32.885959625244	Mt Mckinley	5412	Fort Worth	76137
Fort Worth	-97.056617000000	33.039360000000	WILLOW RUN	4004	Flower Mound	75028
Houston Central	-95.487045000000	29.652439000000	Capello	5702	Houston	77035
Houston Central	-95.327545000000	29.727687000000	Lawson St	1519	Houston	77023
San Antonio	-98.530143000000	29.463775000000	Furr Dr	318	San Antonio	78201
Philadelphia	-75.294563000000	39.943286000000	EDMONDS	337	DREXEL HILL	19026
Fort Worth	-96.858437000000	32.700703000000	Monaco	2430	Dallas	75233
Philadelphia	-75.179298400879	39.935474395752	21st	1304	PHILADELPHIA	19146
Philadelphia	-75.177680000000	39.930095000000	Watkins	1937	PHILADELPHIA	19145
Dallas	-96.691184000000	32.970829000000	Carol Stream	1727	Richardson	75081
Fort Worth	-97.233734000000	32.828048000000	Mackey	4409	North Richland Hills	76180
Fort Worth	-97.447814000000	32.752021000000	Corina	7720	Fort Worth	76108
Dallas	-96.711231000000	32.878320000000	Larchcrest	9630	Dallas	75238
Dallas	-96.705787000000	32.868034000000	Lanshire	10444	Dallas	75238
Philadelphia	-75.293458552100	39.889140166700	ELMWOOD	151	NORWOOD	19074
Fort Worth	-97.390037000000	32.774608000000	Churchill	925	River Oaks	76114
Fort Worth	-97.414131000000	32.757785000000	Straley	5849	Westworth Village	76114
Fort Worth	-97.387535000000	32.734508000000	Birchman	4535	Fort Worth	76107
Fort Worth	-97.336906433105	32.689754486084	Drew	1105	Fort Worth	76110
Philadelphia	-75.295906960000	39.958084200000	STONEYBROOK	2565	DREXEL HILL	19026
San Antonio	0.000000000000	0.000000000000	CREEKWOOD ST	5602	San Antonio	78233
Los Angeles	-117.746994018550	34.042770385742	Beaver	343	Pomona	91766
San Antonio	0.000000000000	0.000000000000	Post Ave	231	San Antonio	78215
Houston Central	-95.125846000000	29.494968000000	Chancellorsville Ct	2506	League City	77573
Houston Central	-95.119480000000	29.571688000000	Neptune	1642	HOUSTON TX	77062
San Antonio	-98.364738464355	29.554845809937	Gray Rdg	6407	San Antonio	78233
San Antonio	-98.492774000000	29.480100000000	Mariposa	104	San Antonio	78212
Houston Central	-94.959022000000	29.361953000000	Longridge Dr	110	La Marque	77568
Houston Central	-95.589404000000	29.742723000000	Poplar Creek Dr	11811	Houston	77077
San Antonio	-98.685111000000	29.430290000000	Trappers Run	814	San Antonio	78245
Dallas	-96.724258000000	32.886135000000	Dahman	10021	Dallas	75238
Los Angeles	-118.049400329590	34.160854339600	Santa Anita Court	154	Sierra Madre	91204
Houston Central	-95.021418900000	29.567127700000	Aspen	1825	Seabrook	77586
Fort Worth	-97.174865000000	32.856575000000	Chisholm	429	Hurst	76054
Atlanta	-84.290878295898	33.737285614014	Crestview	2426	Decatur	30032
Houston Central	-95.447069000000	29.831962000000	Nina Lee Ln	1846	Houston	77018
Fort Worth	-97.426109000000	32.727104000000	Edgehill	3200	Fort Worth	76116
Dallas	-96.710952000000	32.803112000000	Wildoak	2323	Dallas	75228
Fort Worth	-97.403320000000	32.795124000000	Fritz Allen	2268	Fort Worth	76114
Dallas	-96.639290000000	32.773551000000	Cardinal	2540	Mesquite	75149
Fort Worth	-97.376823000000	32.770603000000	Northwood	733	Fort Worth	76107
Houston Central	-95.394721984863	30.045661926270	Bayleaf	23223	Spring	77373
San Antonio	-98.508491000000	29.349937000000	Aaron	327	San Antonio	78221
Houston Central	-95.599172900000	29.987026000000	Oakcroft	11810	houston	77070
Fort Worth	-97.153532000000	33.032215000000	Rolling Hills	3336	Flower Mound	75022
Dallas	-96.598281860352	32.877841949463	Winding	13	Garland	75043
San Antonio	-98.538452000000	29.467655000000	NORTH DR	426	San Antonio	78201
Fort Worth	-97.236123830080	32.804162576795	John	6820	Richland Hills	76118
Los Angeles	-117.797225000000	33.882770000000	Old Ranch	19302	Yorba Linda	92886
Dallas	-96.694908142090	32.848617553711	Wyatt	10554	Dallas	75218
San Antonio	-98.725959000000	29.793329000000	James	340	Boerne	78006
Austin	0.000000000000	0.000000000000	Spicewood	11511	Austin	78750
Houston Central	-95.635505000000	29.654108000000	Avery Park	2314	Sugar Land	77498
Dallas	-97.453330000000	32.719783000000	Bangor	8016	Benbrook	76116
Fort Worth	-97.408638000000	32.652843000000	Canyon Crest	6603	Fort Worth	76132
Houston Central	-95.148628000000	29.802846000000	Somercotes	1442	Channelview	77530
Houston Central	-95.071960000000	29.663696000000	Old Orchard Rd	10322	La Porte	77571
Houston Central	-95.390502000000	30.104198000000	Peper Hollow	28515	Spring	77386
Fort Worth	-97.294052000000	32.873672000000	Butternut	7400	Fort Worth	76137
Fort Worth	-96.621513366699	33.194160461426	College	404	McKinney	75069
San Antonio	0.000000000000	0.000000000000	BRANCH HOLLOW DR	8402	Universal City	78148
Houston Central	-95.691246000000	29.578939000000	Tahoe Valley	1439	Sugar Land	77479
Dallas	-96.767494000000	32.839008000000	Matilda	4318	Dallas	75206
Houston Central	-95.486579000000	29.653804000000	Landsdowne	11519	Houston	77035
Fort Worth	-97.065345000000	32.730499000000	Roberts	2412	Arlington	76010
Fort Worth	-96.672828000000	32.839130000000	Norwood	2402	Dallas	75228
Denton	-97.072311401367	32.722732543945	Reever	2119	Arlington	76010
Fort Worth	-97.173676000000	32.989925000000	VALLEY WOOD	11	Trophy Club	76262
Fort Worth	-97.070640000000	33.075695000000	Scottish Mist	731	Highland Village	75077
Dallas	-96.873237000000	32.886554000000	Carry Back	10355	Dallas	75229
Atlanta	-84.286445617676	33.749038696289	Patrick	2632	Atlanta	30317
San Antonio	-98.473861000000	29.510843000000	Colton	118	San Antonio	78209
San Antonio	-98.404006000000	29.491781000000	Tallulah	4515	San Antonio	78218
Atlanta	-84.337150000000	33.757789000000	Foote	1532	Atlanta	30307
Fort Worth	-97.126602000000	32.860355000000	Rolling Meadows	3613	Bedford	76021
Dallas	-97.083709716797	32.659183502197	Safari	5403	Arlington	76018
Fort Worth	-97.147804000000	32.825775000000	Overhill	904	Bedford	76022
Dallas	-96.752951900000	33.043889000000	Laguna	3032	Plano	75023
Philadelphia	-75.131518000000	40.075010000000	OLD YORK	8251	ELKINS PARK	19027
San Antonio	-98.507026000000	29.461801000000	Fulton	819	San Antonio	78212
Dallas	-97.098823547363	32.701545715332	Williamsburg Manor	2610	Arlington	76014
Fort Worth	-97.221313000000	32.675598000000	Greenspring	7118	Arlington	76016
Houston Central	-95.692952000000	29.549708000000	Flowermound Dr	6726	Sugar Land	77479
Atlanta	-84.298400878906	33.729198455811	Keheley	2131	Decatur	30032
Atlanta	-84.603996276855	33.809429168701	Nathan	1709	Austell	30168
Fort Worth	-96.846351623535	32.694793701172	Lost Creek	3964	Dallas	75224
Dallas	-96.773277000000	32.931545000000	Brookgreen	13435	Dallas	75240
Dallas	-96.735580000000	32.851230000000	Lehigh	7336	Dallas	75214
Fort Worth	-97.425888000000	32.743343000000	Saxony	1701	Fort Worth	76116
Philadelphia	-75.172683000000	39.934440000000	17TH	1312	PHILADELPHIA	19146
Fort Worth	-97.169921875000	32.816692352295	Norwood	505	Hurst	76053
Fort Worth	-97.386039000000	32.678810000000	Whitfield	4237	Fort Worth	76109
Dallas	-96.655990600586	32.766220092773	Stonewood	9624	Dallas	75227
San Antonio	-98.490516000000	29.510444000000	Pinewood	319	San Antonio	78216
Fort Worth	-97.090568000000	32.727081000000	Dawn	1111	Arlington	76010
Houston Central	-95.523040771484	30.218381881714	Gaslight	42	Spring	77382
Dallas	-96.739837646484	32.970924377441	Melrose	614	Richardson	75080
Houston Central	-95.377693000000	29.792402000000	Northwood St	204	Houston	77009
Fort Worth	-97.242518000000	32.831660000000	Lariat	4629	North Richland Hills	76180
Houston Central	-95.470054626465	30.018207550049	Place Rebecca	2103	Houston	77090
Denton	-97.143569000000	33.222675000000	Broadway	1102	Denton	76201
Los Angeles	-117.892776000000	33.646980000000	Irvine	2223	Newport Beach	92660
San Antonio	-98.525688000000	29.450977000000	Ashby Pl	1935	San Antonio	78201
Houston Central	-95.551460266113	30.007772445679	SCENIC GARDENS DR	16722	SPRING	77379
Dallas	-96.749801000000	32.844097000000	Patrick	6507	Dallas	75214
Dallas	-96.800054000000	32.959900000000	La Cosa	6143	Dallas	75248
Fort Worth	-97.376205000000	32.771968000000	Bailey	813	Fort Worth	76107
Denton	-96.624237000000	33.212547000000	Pearson Ave	1108	McKinney	75069
Los Angeles	-117.935134000000	33.692714000000	Alabama	3333	Costa Mesa	92626
Dallas	-97.027290000000	32.760372000000	Austrian	1713	Grand Prairie	75050
Atlanta	-84.425914000000	33.742728000000	Lucile	1165	Atlanta	30310
San Antonio	0.000000000000	0.000000000000	Quarles St	13927	San Antonio	78247
Fort Worth	-97.488136291504	32.821804046631	Stone	218	Lakeside	76108
Dallas	-96.744331000000	32.900230000000	Whitehurst	9202	Dallas	75243
Dallas	-96.962593078613	32.844535827637	Fairbrook	2800	Irving	75062
Fort Worth	-97.190803527832	32.799259185791	Elbe	8701	fort worth	76104
Los Angeles	-118.159980000000	34.165481000000	Lincoln	1137	Pasadena	91103
Denton	-97.029953002930	33.034420013428	Ramblewood	920	Lewisville	75067
San Antonio	-98.466430664062	29.427368164062	NOLAN ST	1118	San Antonio	78202
Houston Central	-95.477920532227	29.671485900879	Dumfries Dr	5418	Houston	77096
Fort Worth	-97.243507385254	32.861213684082	Dream	6408	Watauga	76148
Houston Central	-95.436027900000	30.002030000000	Hollow Wood Dr	16235	Houston	77090
Denton	-97.048202514648	33.055782318115	Homestead	1309	Flower Mound	75028
Houston Central	-95.214408874512	30.059736251831	River Village	2187	Kingwood	77339
San Antonio	-98.409317016602	29.493429183960	Bikini Dr	4227	San Antonio	78218
Philadelphia	-75.151512145996	39.917900085449	PHILIP	2410	PHILADELPHIA	19148
Denton	-96.869705200195	32.904537200928	st croix	3216	DALLAS	75229
Fort Worth	-97.373268127441	32.647258758545	vega	6612	fort worth	76133
Atlanta	-84.304862976074	33.855140686035	Jordan	2069	Atlanta	30345
Philadelphia	-75.314643859863	40.011188507080	HAVERFORD	635	HAVERFORD	19041
Philadelphia	-75.293113708496	39.958068847656	GAINSBORO	814	DREXEL HILL	19026
San Antonio	-98.500418000000	29.455105000000	Magnolia	427	San Antonio	78212
Dallas	-97.255767000000	32.872380000000	Bunker	5817	Watauga	76148
Houston Central	-95.512924194336	29.903533935547	Lamppost	8410	Houston	77064
Houston Central	-95.507080078125	29.903942108154	Pebbledowne	8375	Houston	77064
Houston Central	-95.511322021484	29.904676437378	Carriage Creek	8503	Houston	77064
Houston Central	-95.503982543945	29.903018951416	Big Creek	8331	Houston	77064
Dallas	-96.874465942383	32.939983367920	Candlewick	3041	Farmers Branch	75243
Dallas	-96.744373900000	32.843831000000	Blessing	6716	Dallas	75214
Atlanta	-84.327796936035	33.734157562256	Josephine	1971	Atlanta	30316
San Antonio	-98.499410000000	29.406226000000	SIMON	206	San Antonio	78204
Houston Central	-95.456291198730	29.585952758789	Lazy Ridge	16226	Houston	77053
Fort Worth	-97.368247985840	32.620483398438	Derby Ln	8337	Fort Worth	76123
Houston Central	-95.368324279785	30.050249099731	Burkegate	4419	Spring	77373
Dallas	-96.862442016602	32.917324066162	Goldendale	3426	Farmers Branch	75243
Denton	-96.890777587891	33.099304199219	Knight	7101	The Colony	75056
Philadelphia	-75.171867370605	39.919250488281	Carlisle #2	2509	Philadelphia	19145
San Antonio	-98.688301086426	29.500356674194	Valley Rock	9446	San Antonio	78250
Los Angeles	-117.772048950200	33.805313110352	Ridgeline	1015	Orange Park Acres	92869
Dallas	-96.789024353027	32.969768524170	Mill Falls	6921	Dallas	75248
Houston Central	-95.580360412598	29.603368759155	Orkney	4635	Missouri City	77459
Austin	0.000000000000	0.000000000000	Neans	1106	Austin	78758
Dallas	-96.742301000000	32.859859000000	Wakefield	6919	Dallas	75231
Dallas	-96.708778381348	32.874149322510	Ferndale	9311	Dallas	75238
Dallas	-96.652153015137	32.822544097900	Ridgedale	4222	Mesquite	75150
San Antonio	-98.320968627930	29.563524246216	OAK MDWS	13614	Universal City	78148
Houston Central	-95.439437866211	29.804876327515	Widdicomb Ct	2003	Houston	77008
Fort Worth	-97.367073059082	32.755065917969	Hamilton	3408	Ft. Worth	76107
Dallas	-96.741011000000	32.899780000000	Locarno	9309	Dallas	75243
Houston Central	-95.095893859863	29.447990417480	Glade Bridge	229	Dickinson	77539
Denton	-97.374633789062	32.736404418945	El Campo	3832	Fort Worth	76107
Houston Central	-95.489838123322	29.743540808558	Briarview	2402	Houston	77077
Dallas	-96.634582519531	32.880809783936	Medina	517	Garland	75041
Los Angeles	-117.618804931640	33.427593231201	Marquita	141	San Clemente	92672
Fort Worth	-97.333733000000	32.395096000000	Rosedale	119	Keene	76059
San Antonio	-98.523788452148	29.481138229370	Mariposa	1731	San Antonio	78201
San Antonio	-98.496963500977	29.536287307739	PATRICIA	239	San Antonio	78216
Denton	-96.890579223633	33.078586578369	ALTA OAKS	4808	The Colony	75056
Dallas	-96.739990234375	32.905494689941	Clover Valley	9217	Dallas	75243
Denton	-97.225440000000	33.001274000000	Walnut	409	Roanoke	76262
San Antonio	-98.492904000000	29.639455000000	EL PAISAJE	910	San Antonio	78258
Austin	0.000000000000	0.000000000000	Far West	4019	Austin	78731
Houston Central	-95.484191894531	30.037288665771	Lost Oak Dr	4802	Spring	77388
Atlanta	-84.440605163574	33.743736267090	Derry	1617	Atlanta	30310
Philadelphia	-75.123057000000	39.979268000000	CEDAR	2454	PHILADELPHIA	19125
Fort Worth	-97.278549194336	32.863800048828	Thistledown	4852	Fort Worth	76137
Fort Worth	-97.247055053711	32.855899810791	Martha	5944	Watauga	76148
Dallas	-96.715476000000	32.888687000000	Vistadale	9915	Dallas	75238
Dallas	-97.101783752441	32.697654724121	Cavendish	608	Arlington	76014
Houston Central	-95.237634000000	30.028923000000	Hamblen	1227	Humble	77339
Houston Central	-95.239799499512	29.690738677979	El Buey	5410	Houston	77017
San Antonio	0.000000000000	0.000000000000	CORITA ST	1723	San Antonio	78209
Dallas	-96.749984000000	32.947364000000	Dumont	800	Richardson	75080
Austin	0.000000000000	0.000000000000	Brentwood	310	Leander	78641
Houston Central	-95.519432067871	30.115072250366	Northway Dr	6402	Spring	77389
Atlanta	-84.261428833008	33.750034332275	Robin	3141	Decatur	30032
Fort Worth	-97.143959045410	32.565746307373	Oak	210	Mansfield	76063
Los Angeles	-117.992348000000	34.160114000000	GRAND	378	Monrovia	91016
Fort Worth	-97.170227000000	32.717438000000	Shady Valley	4056	Arlington	76013
Philadelphia	-75.155077600000	39.919222100000	FITZGERALD	433	PHILADELPHIA	19148
Austin	-97.748191833496	30.366712570190	Brownwood	3612	Austin	78759
Atlanta	-84.404998779297	33.784751892090	Ethel	541	Atlanta	30318
San Antonio	-98.625961000000	29.422178000000	Cedarwood	6844	San Antonio	78227
Dallas	-96.716552734375	32.769760131836	Wofford	6106	Dallas	75227
Denton	-96.886436462402	33.084964752197	Crutchberry	5008	The Colony	75056
Houston Central	-95.467758178711	29.892719268799	Streamside	8506	Houston	77088
Fort Worth	-97.793594000000	32.754299000000	Lee	312	Weatherford	76086
Los Angeles	-118.421882629390	34.217380523682	Longridge	8045	North Hollywood	91605
Dallas	-96.720825195312	33.052310943604	Rainier	4004	Plano	75023
Los Angeles	-117.801650315520	33.748025894165	Bullard	1472	North Tustin	92780
Fort Worth	-97.379592895508	32.773406982422	Edgefield	869	Fort Worth	76107
Fort Worth	-97.362480163574	32.798366546631	Pearl	2925	Fort Worth	76106
Fort Worth	-97.218345642090	32.676372528076	Blackberry	7004	Arlington	76016
Dallas	-97.092956542969	32.719749450684	Carswell	1513	Arlington	76010
Houston Central	-95.434822082520	30.259075164795	Woodstock Ln	588	Conroe	77302
Houston Central	-95.650871276855	29.693639755249	Alcomita Dr	7610	Houston	77083
San Antonio	-98.504798889160	29.392147064209	Fairmont	114	San Antonio	78244
San Antonio	-98.360099000000	29.507588000000	Cool Forest	8002	San Antonio	78239
Fort Worth	-97.364250183105	32.664924621582	Morley	5600	Fort Worth	76133
Fort Worth	-97.365646362305	32.696819305420	Winston	3551	Fort Worth	76109
Houston Central	-95.336303710938	29.673999786377	Water Park	7426	Houston	77086
Fort Worth	-97.389533996582	32.725997924805	Houghton	4637	Fort Worth	76107
San Antonio	-98.522094726562	29.373653411865	STONEWALL ST	1011	San Antonio	78211
Houston Central	-95.515060424805	29.827089309692	Opelika	9018	Houston	77080
Fort Worth	-97.034782409668	33.090808868408	Oak	209	Highland Village	75077
Philadelphia	-75.122917000000	39.997371000000	Arbor 2	3154	PHILADELPHIA	19134
Fort Worth	-97.371550574899	32.696362584829	South Hills	3649	Fort Worth	76109
Houston Central	-95.737396240234	29.770713806152	Park Brush	21030	Katy	77450
Houston Central	-95.356124877930	29.672023773193	Briscoe	4633	Houston	77051
Atlanta	-84.393089294434	33.940013885498	River Springs Dr	240	Sandy Springs	30328
Houston Central	-95.456138900000	30.037996000000	Hideaway Ln	3411	Spring	77388
San Antonio	-98.440940856934	29.467559814453	Hathaway	435	San Antonio	78209
Philadelphia	-75.172935485840	39.928070068359	BANCROFT	1820	PHILADELPHIA	19145
San Antonio	-98.510574340820	29.454130172729	MISTLETOE AVE	1015	San Antonio	78201
San Antonio	-98.475280000000	29.432941000000	burleson	323	San Antonio	78202
Dallas	-96.778884887695	32.952838897705	Lynworth	7444	Dallas	75248
San Antonio	-98.345237731934	29.553010940552	Prickle Pear	12501	Live Oak	78233
San Antonio	-98.519386291504	29.451820373535	Navidad	2310	San Antonio	78201
Houston Central	-95.389411926270	30.048093795776	Timberbrook Dr	23227	Spring	77373
San Antonio	-98.464035034180	29.497564315796	LA SOMBRA DR	1827	San Antonio	78209
Philadelphia	-75.139389038086	40.091503143311	CLIFF	111	WYNCOTE	19095
Fort Worth	-97.370831742900	32.349558994200	Washington	210	Cleburne	76031
Dallas	-96.740333557129	32.971240997314	Nantucket	1603	Richardson	75080
Denton	-97.137382507324	33.223606109619	Carroll	1001	Denton	76201
Dallas	-96.864265441895	33.093219757080	Baker	5741	The Colony	75056
Denton	-96.627006530762	32.942958831787	DUKESWOOD	2930	GARLAND	75040
Dallas	-96.761070000000	32.904346000000	Whittenburg Gate	9422	Dallas	75243
Houston Central	-95.548957824707	30.014526367188	Canyon Ridge Dr	17135	Spring	77379
Fort Worth	-97.096633911133	33.219371795654	Weston	3032	Denton	76209
Houston Central	-95.439620971680	29.804443359375	Brooktree	2226	Houston	77008
Los Angeles	-117.762711000000	33.530416000000	Baja	1083	Laguna Beach	92651
Houston Central	-95.340217590332	29.705501556396	Arvilla Ln	4843	Houston	77021
Denton	-96.756446838379	32.975521087646	Cheyenne	1802	Richardson	75080
Philadelphia	-75.234298706055	40.025703430176	ASHLAND	124	LOWER MERION	19004
Houston Central	-95.194213867188	30.079288482666	Shady Maple	5019	Kingwood	77339
Los Angeles	-118.155494689940	34.108150482178	Diamond	1518	South Pasadena	91030
Philadelphia	-75.193992614746	40.012161254883	CALUMET	3626	PHILADELPHIA	19129
Denton	-96.864425000000	32.917720000000	Templeton	12524	Farmers Branch	75234
Houston Central	-95.126365000000	29.492128000000	Fredericksburg Dr.	2515	League City	77573
San Antonio	-98.333511000000	29.494825000000	Corum Trail	7907	San Antonio	78244
Dallas	-97.238327026367	32.882823944092	Inwood	6652	Watauga	76148
Philadelphia	-75.157905578613	39.926448822021	Moore	714	Philadelphia	19148
Atlanta	-84.432161897421	34.049065634608	Loch Highland	4285	Roswell	30075
Atlanta	-84.274055480957	33.752616882324	Dorothy	1405	Decatur	30030
Fort Worth	-97.461174000000	32.747151000000	Richard	8213	Fort Worth	76108
Houston Central	-95.467460632300	29.823333740200	MILWEE	5218	HOUSTON	77092
Atlanta	-84.517756000000	33.872126000000	Pinehurst	1210	Smyrna	30080
San Antonio	-98.296172000000	29.494574000000	Autumn	6915	Converse	78109
Fort Worth	-97.338790893555	32.710029602051	5th	2835	Fort Worth	76110
Austin	-97.713778252427	30.430412563107	Oak Creek	4201	Austin	78727
Houston Central	-95.658996582031	29.696699142456	SIERRA VALLE DR	15519	HOUSTON	77083
Houston Central	-95.516578674316	29.973430633545	Indian Wells Dr	12711	Houston	77066
Dallas	-96.795761108398	32.968761444092	Copper Creek	6439	Dallas	75248
Houston Central	-95.330154000000	29.745861000000	SOUTH SUPER ST	216	Houston	77011
San Antonio	-98.357124000000	29.476476000000	FAIRLAKE ST	6710	San Antonio	78244
San Antonio	-98.596229553223	29.452480316162	Santa Cruz	5447	San Antonio	78228
Houston Central	-95.526230000000	29.669900000000	Braesdale Ln	8510	Houston	77071
San Antonio	-98.402839000000	29.550477000000	ALAMO BLANCO	11913	San Antonio	78233
Houston Central	-95.566656000000	29.743712000000	Olympia Dr	10726	Houston	77042
Fort Worth	-97.267135620117	32.808544158936	Meadow Oaks	3226	Haltom City	76117
Houston Central	-95.226028442383	30.034318923950	Trailwood Village Dr	1339	Kingwood	77339
San Antonio	-98.309250000000	29.540256000000	Tumblebrook	530	San Antonio	78148
Houston Central	-95.614021301270	29.756460189819	Briar Forest Dr #148	12800	Houston	77077
Houston Central	-95.539253234863	29.703723907471	Leader	8803	Houston	77036
Dallas	-96.772361755371	32.971481323242	La Cabeza	7808	Dallas	75248
Fort Worth	-97.257339477539	32.815563201904	Sheridon	3616	North Richland Hills	76117
Atlanta	-84.268340000000	33.819887000000	Atterberry	1351	Decatur	30033
Fort Worth	-97.425720214844	32.744239807129	Ridgmar	1604	Fort Worth	76116
Atlanta	-84.249549865723	33.757865905762	Beech Drive	3427	Decatur	30032
Houston Central	-95.493408203125	29.977140426636	Sarti St	12230	Houston	77066
Atlanta	-84.545562744141	33.630580902100	Larkspur	5007	Atlanta	30349
Houston Central	-95.547874450684	29.999986648560	Hexham Dr	16149	Spring	77379
Houston Central	-95.599624633789	29.979860305786	Fawnview Dr	11806	Houston	77070
Houston Central	-95.179031372070	29.689638137817	Marlen	2404	Pasadena	77502
Los Angeles	-119.239654541020	34.267616271973	Flower	3958	Ventura	93003
San Antonio	-98.443090000000	29.493766000000	Irvington	434	San Antonio	78209
Dallas	-96.802085876465	33.008678436279	Breakpoint	6066	Dallas	75252
Los Angeles	-118.118255615230	33.830009460449	Parkcrest	5822	Long Beach	90808
San Antonio	-98.321182250977	29.518894195557	Deborah	317	Converse	78109
Atlanta	-84.282600402832	33.801860809326	Gardenia	824	Decatur	30033
Dallas	-96.720710754395	32.881500244141	RAVENSWAY	9806	Dallas	75238
Fort Worth	-97.375162000000	32.770881000000	N. Bailey	730	Fort Worth	76107
Dallas	-96.651696000000	32.847599000000	Drummond	11410	Dallas	75228
Houston Central	-95.495414733887	29.653738021851	Beaudry	6002	Houston	77035
Houston Central	-95.662407000000	29.705946000000	Marisol	6718	Houston	77083
Denton	-96.891675000000	33.090990000000	Lemmon	4713	The Colony	75056
Dallas	-96.729530334473	32.902816772461	Atherton	9666	Dallas	75243
Dallas	-96.706451416016	33.049144744873	Warwick	817	Plano	75023
Fort Worth	-96.895545959473	32.959968566895	Hood	1803	Carrollton	75006
Philadelphia	-75.029792785645	40.039970397949	DECATUR	4120	PHILADELPHIA	19136
Dallas	-96.868743896484	32.945075988770	Cyprus Point	14515	Farmers Branch	75234
Dallas	-96.582221984863	32.771217346191	Paintbrush	1132	Mesquite	75149
Fort Worth	-97.373012000000	32.698735000000	Biddison	3712	Fort Worth	76109
Philadelphia	-75.162834167480	39.933788299561	TITAN	1116	PHILADELPHIA	19147
Houston Central	-95.612159000000	29.885899000000	Log Cradle	7418	Houston	77041
Dallas	-96.868847000000	32.893701000000	Regent	3236	Dallas	75229
Houston Central	-95.500589000000	29.871911000000	Stonehearth	8902	Houston	77040
Los Angeles	-117.983818000000	33.983264000000	Flower Hill	3226	Hacienda Hts	91745
Dallas	-96.703193664551	32.806087493896	Banquo	8458	Dallas	75228
Denton	-97.255455017090	32.475025177002	Oak	4217	Alvarado	76009
Los Angeles	-118.103996276860	34.154216766357	Lola	462	Pasadena	91107
Houston Central	-95.373359680176	29.719177246094	Oakdale St	2531	Houston	77004
San Antonio	-98.595703125000	29.458911895752	Southwick St	5531	San Antonio	78228
Houston Central	-1.000000000000	-1.000000000000	Sagedowne Ln	11602	Houston	77089
Fort Worth	-97.301025000000	32.876551000000	Flintwood	3800	Fort Worth	76137
San Antonio	-98.469512939453	29.431091308594	LAMAR	716	San Antonio	78202
San Antonio	-98.522712707520	29.376754760742	Crystal	1130	San Antonio	78211
Denton	NULL	NULL	Pensacola	200	Waxahachie	75165
San Antonio	-98.226070851088	29.624328017235	Elm	3620	Schertz	78108
Dallas	-96.809059143066	33.009368896484	Rowden	19505	Dallas	75252
Fort Worth	-97.396614074707	32.778392791748	Merritt	1154	River Oaks	76114
Houston Central	-95.598426818848	29.587507247925	Flintwood	3114	Sugar Land	77479
Houston Central	-95.598289489746	29.577690124512	Hidden Creek	3514	Sugar Land	77479
Atlanta	-84.387001037598	34.052528381348	Ridgefield	1695	Roswell	30075
Philadelphia	-75.221538000000	40.034189000000	PECHIN	4618	PHILADELPHIA	19128
Houston Central	-95.166496276855	30.057716369629	Mulberry Grove Rd	5318	Kingwood	77345
Denton	-97.027481000000	33.125057000000	DUCHESS	5304	LAKE DALLAS	75065
Atlanta	-84.247680664062	33.965744018555	Courtside	6226	Norcross	30092
Philadelphia	-75.153968811035	39.930431365967	WILDER	521	PHILADELPHIA	19147
Los Angeles	-118.278129577640	33.812427520752	234th	172	Carson	90745
Fort Worth	-97.156776428223	32.720291137695	Shady Valley2	4056	Arlington	76013
Houston Central	-95.358871000000	29.727792000000	Holman	3224	Harris	77004
San Antonio	-98.443916000000	29.372154000000	Grecian	201	San Antonio	78223
Dallas	-96.745620727539	32.957416534424	WINCHESTER	715	Richardson	75080
San Antonio	-98.562171936035	29.558841705322	Silver Radience	12715	San Antonio	78230
Houston Central	-95.150222778320	30.044994354248	Lofty Maple	1614	Kingwood	77345
Dallas	-96.630645751953	32.862621307373	Wildbriar	341	Garland	75043
Dallas	-96.594528198242	32.713935852051	Oakwood	14715	Balch Springs	75180
Fort Worth	-97.433449900000	32.742515000000	Dakar	1716	Fort Worth	76116
San Antonio	-98.470260620117	29.447179794312	Pine	822	San Antonio	78212
Houston Central	-95.472183227539	29.825496673584	April Ln	3911	Houston	77092
San Antonio	-98.513816833496	29.480867385864	W Mariposa	1119	San Antonio	78201
Houston Central	-95.617843627930	30.092813491821	S Magnolia St	402	Tomball	77375
Philadelphia	-75.303543090820	39.960311889648	HARPER	1101	DREXEL HILL	19026
Fort Worth	-97.389205932617	32.762523651123	Palmetto	215	Fort Worth	76114
Dallas	-97.283630371094	32.864501953125	Poppy	4723	Fort Worth	76137
Philadelphia	-75.289039611816	39.981689453125	Merion	600	havertown	19083
Dallas	-96.693893000000	33.036413000000	Lilac	1412	Plano	75074
Atlanta	-84.405052185059	33.986335754395	Lake Fjord	5010	Marietta	30068
Houston Central	-95.335967000000	29.648579000000	Groveton St & 10702 Duane	5722	Houston	.
Fort Worth	-97.246597290039	32.765342712402	Willow Ridge	601	Fort Worth	76103
Houston Central	-95.464281000000	29.673955000000	Dumfries Dr	4963	Houston	77096
Fort Worth	-96.991622924805	32.714233398438	Sheriff	2133	Grand Prairie	75051
Denton	-97.029968000000	33.031902000000	Azalia	1316	Lewisville	75067
San Antonio	-98.360877990723	29.508420944214	Lake Forest	8014	San Antonio	78239
Los Angeles	-118.221373000000	34.127928000000	Avenue 45	1738	Los Angeles	90041
Houston Central	-95.369567871094	30.045356750488	Tylergate	4219	Spring	77373
Houston Central	-95.216201782227	29.534496307373	Castlelake Dr	503	Friendswood	77546
Fort Worth	-97.197975000000	32.668981000000	Crest	4808	Arlington	76017
Atlanta	-84.411590576172	33.716102600098	Desoto	1420	Atlanta	30310
Houston Central	-95.451004028320	30.021871566772	Verret	1107	Houston	77090
Houston Central	-95.614852905273	29.729759216309	Ashford Arbor	3102	Houston	77082
Houston Central	-95.730332000000	29.765809000000	Prince Creek Dr	20642	Katy	77450
Fort Worth	-97.464912414551	32.753044128418	Wyatt	8512	White Settlement	76108
Houston Central	-94.976500000000	29.738262000000	Murrill St	1002	Baytown	77520
Los Angeles	-118.226188659670	34.138961791992	El Roble	2809	Los Angeles	90041
Houston Central	-95.397598266602	30.047626495361	Trailing Vine Rd	2327	Spring	77373
Dallas	-96.722702026367	32.882675170898	Dartridge	9560	Dallas	75238
Houston Central	-95.141495000000	29.552024000000	Lost Rock Dr.	307	Webster	77598
Houston Central	-95.165954589844	29.704793930054	Albemarle Dr	3212	Pasadena	77503
Los Angeles	-118.106812000000	34.171101000000	Alpha	1453	Pasadena	91104
Fort Worth	-97.021171569824	33.124649047852	Lakeview	200	Lake Dallas	75065
Fort Worth	-97.374572753906	32.739807128906	Bryce	3824	Fort Worth	76107
Los Angeles	-117.760406494140	33.889110565186	Via Del Puente	21310	Yorba Linda	92887
Fort Worth	-97.236312866211	32.743934631348	grandview	2421	fort worth	76112
San Antonio	-98.424316000000	29.567677000000	McCormick	3510	San Antonio	78247
Dallas	-96.691833496094	33.027099609375	Sylvan	1601	Plano	75074
Dallas	-96.601600646973	32.874725341797	Toler	1925	Garland	75043
Houston Central	-95.448776245117	29.829452514648	Cheshire	2018	Houston	77018
Fort Worth	-97.357376098633	32.669879913330	Westfield	2712	Fort Worth	76133
Houston Central	-95.134368000000	29.560924000000	Redway	814	Houston	77062
Fort Worth	-97.086847800000	32.964089900000	Hummingbird	1120	Grapevine	76051
Dallas	-96.621286000000	32.740381900000	Edgemont	1616	Mesquite	75149
Denton	-97.123718261719	33.243198394775	Windfields	709	Denton	76209
Dallas	-96.732543000000	32.969852000000	Melrose	430	Richardson	75080
Fort Worth	-97.461786000000	32.774180000000	hackamore	845	fort worth	76108
Fort Worth	-97.376190185547	32.655502319336	Kelvin	3829	Fort Worth	76133
Los Angeles	-118.429664611820	34.048210144043	OVERLAND	2030	Los Angeles	90025
Fort Worth	-97.238197326660	32.768390655518	heights	732	fort worth	76122
Philadelphia	-75.161117553711	39.918605804443	MILDRED	2437	PHILADELPHIA	19148
San Antonio	-98.490317000000	29.512649000000	SPRUCEWOOD LANE	323	San Antonio	78216
Houston Central	-95.669629000000	29.970559000000	Darby House	16515	Cypress	77429
Dallas	-97.417091000000	32.733581000000	East	2812	Fort Worth	76116
San Antonio	-98.430435180664	29.578294754028	Green Spring	3415	San Antonio	78247
Atlanta	-84.455268859863	33.683895111084	n CLARK DR	2620	EAST POINT	30344
Houston Central	-95.404319000000	30.077994000000	FAIRBROOK LN	25810	SPRING	77373
Fort Worth	-97.441535949707	32.881076812744	Canyon Crest	8633	Fort Worth	76179
Houston Central	-95.364921569824	30.048379898071	TOWERGATE DR	4515	Spring	77373
Houston Central	-95.490793000000	30.007549000000	Amber Forest	3434	Houston	77068
San Antonio	-98.533416748047	29.416772842407	Chihuahua	2508	San Antonio	78207
Dallas	-96.738151550293	32.861541748047	Freemont	7066	Dallas	75231
San Antonio	-98.607612609863	29.533500671387	Holly Hock	6141	San Antonio	78240
Dallas	-96.855895996094	32.695102691650	Tosca	2239	Dallas	75224
Houston Central	-95.066841125488	29.340358734131	32nd 1/2 St	11120	Santa Fe	77510
Austin	0.000000000000	0.000000000000	Portage	8512	Austin	78717
Dallas	-97.039611816406	33.083663940430	Willow Cove	102	Highland Village	75077
San Antonio	-98.337142944336	29.551019668579	TRAILING OAKS ST	12310	Live Oak	78233
San Antonio	-98.486289978027	29.504726409912	MERTZ DR	7606	San Antonio	78216
Fort Worth	-97.379467000000	32.741678000000	THOMAS	1821	Fort Worth	76107
Dallas	-96.841667175293	32.920005798340	Candlenut	4031	Dallas	75244
Philadelphia	-75.295257568359	39.958511352539	STONEYBROOK	2566	DREXEL HILL	19026
Dallas	-96.738319396973	32.850467681885	Bennington	7235	Dallas	75214
Houston Central	-95.532836914062	30.029573440552	THEISSWOOD	7407	Spring	77379
Dallas	-96.774467468262	32.985130310059	Mullrany	7709	Dallas	75248
Dallas	-96.702339172363	32.805454254150	Sweetwater	8460	Dallas	75228
San Antonio	-98.526115417480	29.461879730225	Gramercy	1829	San Antonio	78201
Austin	0.000000000000	0.000000000000	Pebble Garden	6100	Austin	78739
Houston Central	-95.497489929199	29.654607772827	Beaudry	6039	Houston	77035
Dallas	-96.733642578125	32.904693603516	Hunters Creek	9445	Dallas	75243
Denton	-96.873733520508	33.013938903809	Verlaine	3725	Carrollton	75007
Dallas	-96.850219000000	32.916568000000	High Meadow	12621	Dallas	75244
San Antonio	-98.324768066406	29.489030838013	Chestnut Barr Dr	7914	Converse	78109
Los Angeles	-118.089042663570	34.156112670898	Sunnyslope	554	Pasadena	91107
Houston Central	-95.499305725098	29.682298660278	Ariel St	6123	Houston	77074
Houston Central	-95.385276794434	29.739459991455	Marshall Street #5	204	Houston	77006
Houston Central	-95.626823000000	29.942159000000	Trudeau	11603	Houston	77065
San Antonio	-98.523643493652	29.491815567017	WEIZMANN ST	1022	San Antonio	78213
Denton	-97.018302917480	33.048271179199	Dartmouth	1024	Lewisville	75067
Houston Central	-95.501083374023	29.680412292480	Reamer	6214	Houston	77074
Dallas	-96.700046000000	32.845810000000	Vinemont	10282	Dallas	75218
Austin	0.000000000000	0.000000000000	Valona	10009	Austin	78717
Houston Central	-95.496299743652	29.679973602295	Reamer St	5915	Houston	77074
Los Angeles	-117.240913391110	33.380989074707	Morro	209	Fallbrook	92028
Los Angeles	-118.360290527340	34.103519439697	Orange	1774	Los Angeles	90046
Dallas	-96.847129821777	32.864532470703	Thornberry	9433	Dallas	75220
Fort Worth	-97.224761962891	32.648910522461	Corry A Edwards	516	Kennedale	76040
Dallas	-96.893531799316	33.013656616211	Southampton	1739	Carrollton	75007
Dallas	-96.865112304688	32.933425903320	Courtyard	3474	Farmers Branch	75243
Dallas	-96.533416748047	32.889999389648	Glen Hill	3109	Rowlett	75088
Fort Worth	-97.236610000000	32.804127000000	John	6800	Richland Hills	76118
Fort Worth	-97.431709289551	32.743034362793	Genoa	6612	Fort Worth	76116
Dallas	-96.754440307617	33.012672424316	Dartmouth	3108	Plano	75075
Philadelphia	-75.301315307617	39.960430145264	COBBS	1032	DREXEL HILL	19026
Austin	-97.764990191781	30.407679232877	Sausalito	10306	Austin	78759
Houston Central	-95.444534301758	29.804401397705	Brooktree Dr	2502	Houston	77008
San Antonio	-98.319419000000	29.565979000000	HERA	8438	Universal City	78148
Houston Central	-95.245094299316	29.647499084473	Sulphur St	1414	Houston	77034
Dallas	-96.940284729004	33.154258728027	Cottonwood	161	Little Elm	75068
Houston Central	-95.440711000000	29.725582000000	Drake	3922	Houston	77005
Fort Worth	NULL	NULL	Galemeadow	2911	Fort Worth	76123
Dallas	-96.756759643555	32.946231842041	Parkhaven	1122	Richardson	75080
Dallas	-96.651222229004	32.923263549805	Meadow	1526	Garland	75042
San Antonio	-98.683509826660	29.515794754028	Points Edge	9478	San Antonio	78250
Dallas	-96.724685668945	32.991451263428	Forest Grove	2640	Richardson	75080
Houston Central	-95.713120000000	29.889198000000	Laurel Trail Dr	19934	Cypress	77433
Dallas	-97.028762817383	32.743030548096	Fort Worth	1833	Grand Prairie	75050
San Antonio	-98.517349243164	29.537611007690	Spanish Oaks	1527	San Antonio	78213
Dallas	-97.133522000000	32.758144000000	Northwood	1715	Arlington	76012
Houston Central	-95.189842000000	30.082193000000	Leafy Pine	3207	Kingwood	77345
Houston Central	-95.479062000000	29.665378000000	Creekbend	5435	Houston	77096
San Antonio	-98.491661071777	29.344102859497	Ackard	351	San Antonio	78221
Dallas	-96.853500366211	32.677288055420	Oak Valley	2150	Dallas	75232
Houston Central	-95.219925000000	30.044974000000	Lazy Grove Dr	2202	Kingwood	77339
Denton	-97.386108398438	32.737007141113	Western	2317	Fort Worth	76107
Dallas	-96.775010000000	32.985136000000	Mullrany	7705	Dallas	75248
Houston Central	-95.531326293945	29.831537246704	Clanton	9642	Houston	77080
San Antonio	-98.523925781250	29.457834243774	Mulberry	1714	San Antonio	78201
Philadelphia	-75.346618652344	39.874919891357	GRANT	1443	WOODLYN	19094
Dallas	-96.753639221191	32.961181640625	Teakwood	914	Richardson	75080
Dallas	-96.968050000000	32.814289000000	Collins	118	Dallas	75060
Philadelphia	-75.261779785156	39.940879821777	MELROSE	17	LANSDOWNE	19050
Los Angeles	-116.869445800780	33.921943664551	Lincoln	669	Banning	92220
Houston Central	-95.035919000000	29.581260000000	RAINTREE CI	1847	SEABROOK	77586
Denton	-96.894737243652	33.013748168945	Southampton	1729	Carrollton	75007
Fort Worth	-97.470718000000	32.755298000000	Judd	413	White Settlement	76108
Dallas	-96.690444946289	32.850639343262	Lochwood	11515	Dallas	75218
Los Angeles	-117.659100000000	33.568822000000	Galvez	27142	Mission Viejo	92691
San Antonio	-98.573448181152	29.475353240967	Rolling Green	214	San Antonio	78228
Philadelphia	-75.155189514160	39.919620513916	DURFOR	441	PHILADELPHIA	19148
Fort Worth	-97.291416000000	32.691381000000	Eastline	4859	Fort Worth	76119
Fort Worth	-96.995620000000	32.742561000000	Grand Prairie	620	Grand Prairie	75051
Austin	0.000000000000	0.000000000000	Langford	2206	Austin	78723
Atlanta	-84.438766479492	33.665920257568	Dogwood	3289	College Park	30337
Houston Central	-95.585777282715	29.698770523071	Sandstone St	11722	Houston	77072
Dallas	-96.688194274902	32.856487274170	Lanewood	11232	Dallas	75218
San Antonio	-98.583290100098	29.484037399292	Lambeth Dr	4903	San Antonio	78230
Houston Central	-95.382537000000	30.065776000000	Allyson Court	2615	Spring	77373
Houston Central	-95.220535000000	29.602800000000	Kirknoll Dr	12011	Houston	77089
Atlanta	-84.302223205566	33.724239349365	Scotty	2240	Decatur	30032
Philadelphia	-75.160858154297	39.938690185547	11TH	921	PHILADELPHIA	19147
Houston Central	NULL	NULL	Raritan	10406	Houston	77043
Philadelphia	-75.177261352539	39.935642242432	20th	1250	Philadelphia	19146
Fort Worth	-97.314773559570	32.708946228027	baker	1021	fort worth	76104
Philadelphia	-75.298881000000	39.956398000000	PENN	811	DREXEL HILL	19026
San Antonio	-98.506134000000	29.482606000000	Thorain	539	San Antonio	78212
Dallas	-96.741182000000	32.991675000000	Walnut Creek	7	Richardson	75080
Houston Central	-95.524406433105	29.986974716187	Blue Hills	6718	Houston	77069
Dallas	-96.660905000000	32.749382000000	Aspen	2146	Dallas	75227
Fort Worth	-97.106214000000	32.710622000000	Woods	101	Arlington	76010
Houston Central	-95.272915000000	29.620591000000	Wetherby Ln	8210	Houston	77075
Atlanta	-84.751571655273	33.909370422363	ANSLEY	41	Dallas	30157
Houston Central	-95.535346984863	29.574415206909	Turtle Creek Dr	2138	Missouri City	77459
Fort Worth	-97.325317382812	32.764434814453	waterman	1315	fort worth	76102
Los Angeles	-118.151824000000	34.182456000000	El Sereno number two	2134	Altadena	91001
San Antonio	-98.677556900000	29.517576000000	BRUSHY POINT ST	9335	San Antonio	78250
Houston Central	-95.616737000000	29.729312000000	Skypark	2902	Houston	77082
Fort Worth	-97.334579467773	32.677848815918	Felix	913	Fort Worth	76115
Atlanta	-84.324874877930	33.717941284180	Cecilia	1617	Atlanta	30316
Houston Central	-95.105499267578	29.660404205322	Ashwyne	8707	La Porte	77571
Houston Central	-95.471055000000	29.621304000000	Heatherbrook Dr	5851	Houston	77085
Los Angeles	-118.065597534180	34.140079498291	De Anza	1131	Arcadia	91007
San Antonio	-98.524902343750	29.526895523071	MIMOSA DR	105	San Antonio	78213
San Antonio	-98.556979000000	29.342991000000	kiowa	3039	San Antonio	78211
San Antonio	-98.426124572754	29.365280151367	Gayle	314	San Antonio	78223
Houston Central	-95.502853393555	30.053056716919	Centerlake	19703	Spring	77379
Houston Central	-95.737239718437	29.769699051976	Park Brush Cir	20910	Katy	77450
Houston Central	-95.607940673828	29.594844818115	Quarry Hill Rd	2611	Sugar Land	77478
Houston Central	-95.486579895020	29.653995513916	Landsdowne Dr	11515	Houston	77035
Houston Central	-95.534530639648	29.791261672974	Westview Dr	9781	Houston	77055
Dallas	-97.069057000000	32.661093000000	Pocassett	5307	Arlington	76018
Denton	-96.884650513530	33.086012452841	Hetherington	5009	The Colony	75056
Fort Worth	-96.896385192871	33.098754882812	HALE	4512	THE COLONY	75056
Houston Central	-95.589790344238	29.742813110352	Poplar Creek Dr	11819	Houston	77077
Dallas	-96.737510681152	32.969890594482	Melrose	528	Richardson	75080
Dallas	-96.686546325684	32.862400054932	Carissa	11247	Dallas	75218
Houston Central	-95.600357055664	30.370796203613	April Wind Dr	155	Montgomery	77356
Dallas	-96.711952209473	32.892642974854	Ferndale	10722	Dallas	75238
San Antonio	-98.467437744141	29.502201080322	Lorenz	158	San Antonio	78209
Dallas	-96.688011169434	32.861602783203	Brookmeadow	12206	Dallas	75218
Fort Worth	-97.426605224609	32.743511199951	Saxony	1612	Fort Worth	76116
Austin	0.000000000000	0.000000000000	Montoya	8233	Austin	78717
Austin	-97.830451000000	30.185876000000	Curlew	9105	Austin	78748
Philadelphia	-75.155822753906	39.920951843262	TREE	513	PHILADELPHIA	19148
Atlanta	-84.327682000000	33.909065000000	Chesson	3962	Brookhaven	30319
Houston Central	-95.456889000000	30.044597000000	Candleway Dr	3231	Spring	77388
Fort Worth	-97.379943847656	32.727088928223	Valentine	4209	Fort Worth	76107
Philadelphia	-75.121597290039	40.076282501221	SHOEMAKER	509	ELKINS PARK	19027
Fort Worth	-97.377975463867	32.773811340332	Oaklawn	3820	Fort Worth	76107
Fort Worth	-97.243843078613	32.816352844238	Jerrell	6435	Fort worth	76180
Houston Central	-95.708061218262	29.889591217041	Stonecross Glen	19834	Cypress	77433
Philadelphia	-75.211830139160	40.033363342285	MARTIN	569	PHILADELPHIA	19128
San Antonio	-98.503852844238	29.468198776245	Norwood	629	San Antonio	78212
Houston Central	-95.046127000000	29.567571000000	Biscayne	319	El Lago	77586
San Antonio	-98.409667968750	29.418525695801	charcliff	266	San Antonio	78220
Dallas	-96.628425598145	32.843841552734	Medina	1700	Mesquite	75150
Los Angeles	-122.238548278810	37.757022857666	San Jose	2828	Alameda	94501
Denton	-97.134506225586	33.227691650391	Bolivar	1520	Denton	76201
Houston Central	-95.663597106934	29.892911911011	Peach Forest	16826	Houston	77095
Dallas	-96.860671997070	32.891227722168	Ainsworth	3544	Dallas	75229
Fort Worth	-97.252906799316	32.870906829834	Harrison	6001	Watauga	76148
Houston Central	-95.499516000000	29.682779000000	Ariel St	6128	Houston	77074
Houston Central	-95.363064000000	30.056148000000	Quailgate Dr	4910	Spring	77373
San Antonio	-98.433181762695	29.375701904297	PRESTWICK BLVD	507	San Antonio	78223
Philadelphia	-75.268507450819	39.950534328818	PLUMSTEAD	249	LANSDOWNE	19050
Philadelphia	-75.156707763672	39.925350189209	MIFFLIN	611	PHILADELPHIA	19148
Fort Worth	-97.130294799805	32.764095306396	Cedar Elm	1819	Arlington	76012
Dallas	-96.653579711914	32.741111755371	Red Cloud	1631	Dallas	75217
Fort Worth	-97.370903015137	32.926822662354	Emerald Park	10812	Fort Worth	76052
Los Angeles	-116.528556823730	33.803974151611	Sunrise	1529	Palm Springs	92264
Houston Central	-95.655380000000	29.887966000000	Hickory Point	16326	Houston	77095
Fort Worth	-96.833305358887	32.688632965088	crown knoll	4530	dallas	75232
Philadelphia	-75.237732000000	40.008345000000	BRYN MAWR	416	BALA CYNWYD	19004
Houston Central	-95.549804687500	30.004545211792	NEW FOREST	9315	SPRING	77379
Houston Central	-95.082611000000	29.659387000000	Stonemont	9914	La Porte	77571
San Antonio	-98.361459000000	29.507494000000	Quiet Forest	6414	San Antonio	78239
San Antonio	-98.322196960449	29.520854949951	Jamie Sue	611	San Antonio	78109
San Antonio	-98.532638549805	29.487667083740	Greenhaven	211	San Antonio	78201
San Antonio	-98.551414489746	29.523893356323	NORTHMOOR ST	3427	San Antonio	78230
Fort Worth	-97.367820739746	32.683620452881	Wilson	4320	Fort Worth	76133
Houston Central	-95.489982604980	29.649858474731	Cartagena St	5807	Houston	77035
Houston Central	-95.537582397461	30.010757446289	Rockford Hall Dr	8303	Spring	77379
Atlanta	-84.400405883789	33.991180419922	Little Willeo	1730	Marietta	30068
Houston Central	-95.497381000000	29.674545000000	Paisley St	6102	Houston	77096
Fort Worth	-97.452499389648	32.713981628418	Williams	3837	Benbrook	76116
Houston Central	-95.720512390137	29.799333572388	Sand Creek	19910	Katy	77449
Denton	-97.432357788086	32.742218017578	Dakar	1709	Fort Worth	76116
Dallas	-96.712768554688	32.880603790283	Robin Hill	9742	Dallas	75238
Philadelphia	-75.122215270996	40.056243896484	OAK LANE	7410	CHELTENHAM	19027
Dallas	-96.716255000000	32.770263000000	Wofford	6111	Dallas	75227
Fort Worth	-97.105339050293	32.646209716797	Sea Rim	531	Arlington	76018
Austin	0.000000000000	0.000000000000	Ridge Rock	1505	Round Rock	78681
Atlanta	-84.282946000000	33.932929000000	Andover	2555	Dunwoody	30360
Denton	-97.064170837402	33.020229339600	ELLIS	2201	FLOWER MOUND	75028
Denton	-97.049812316895	33.076183319092	MEDINA	601	LEWISVILLE	75077
Dallas	-96.756395000000	32.943039000000	Ridgeway	1106	Richardson	75080
Dallas	-96.557903811336	32.849356457591	Kelso	4813	Garland	75043
Denton	-96.885948181152	33.088691711426	Strickland	5017	The Colony	75056
Atlanta	-84.417381286621	33.716899871826	hartford ave	1391	atlanta	30310
Dallas	-96.741558000000	33.021903000000	Regal	2505	Plano	75075
Los Angeles	-116.528541564940	33.808406829834	Mesquite	1683	Palm Springs	92264
Dallas	-96.730728149414	32.900524139404	Robin Meadow	9605	Dallas	75243
Dallas	-96.625038146973	32.760261535645	Sandy	1801	Mesquite	75149
Denton	-97.243545000000	32.806285000000	Dreeben	3108	RICHLAND HILLS	76118
Houston Central	-95.502876281738	30.016778945923	Sampras Ace Ct	6330	Spring	77379
Philadelphia	-75.193908691406	39.937099456787	30th	1318	Philadelphia	19146
Houston Central	-95.364485000000	29.727371000000	Truxillo	2818	Houston	77004
Houston Central	-95.533256530762	29.733798980713	Highmeadow	9511	Houston	77063
Houston Central	-95.358428955078	30.046665191650	Glendower Drive	4707	Houston	77373
Dallas	-96.789695739746	33.140682220459	Ambergate	10412	Frisco	75035
Houston Central	-95.539024353027	29.685277938843	Imogene	9005	Houston	77036
Philadelphia	-75.135505676270	39.967826843262	LEOPARD	1127	PHILADELPHIA	19123
Houston Central	-95.358673095703	30.046112060547	Glendower Drive	4706	Houston	77373
Houston Central	-95.635314941406	29.851615905762	Crystal Bay Drive	5106	Houston	77084
San Antonio	-98.452392000000	29.487810000000	MEADOWLANE DR	511	San Antonio	78209
Houston Central	-95.045883178711	29.565593719482	Cedar	402	El Lago	77586
Houston Central	-95.466339111328	29.671167373657	Wigton Drive	5023	Houston	77096
Dallas	-96.697303771973	32.874103546143	Hayfield	10818	Dallas	75238
Fort Worth	-97.349464416504	32.702758789062	Townsend	3236	Fort Worth	76110
Philadelphia	-75.249290466309	40.264621734619	CRICKLEWOOD	264	LANSDALE	19446
Houston Central	-95.521369934082	30.036382675171	Trailway Ln	6610	Spring	77379
Dallas	-97.205497741699	32.694252014160	Waterview	6303	Arlington	76016
Los Angeles	-118.071652000000	34.138126000000	Minoa	481	Pasadena	91107
Houston Central	-95.516616821289	29.995113372803	Westerham	5134	Houston	77069
Houston Central	-95.578613281250	29.746603012085	Briar Rose Dr	11407	Houston	77077
Los Angeles	-118.301231384280	33.957992553711	88th	1424	Los Angeles	90047
Dallas	-96.862228393555	32.888088226318	Warick	3506	Dallas	75229
Los Angeles	-118.175346374510	33.836738586426	Maury	4340	Long Beach	90807
Denton	-97.024765014648	33.013820648193	Falling Water	1212	Lewisville	75067
San Antonio	-98.453689000000	29.491453000000	Brees	110	San Antonio	78209
San Antonio	-98.504463195801	29.461669921875	FULTON AVE	731	San Antonio	78212
Denton	-97.043304443359	33.048103332520	Tiburon	1849	Lewisville	75067
Los Angeles	-118.497520000000	34.165226000000	Magnolia	16713	Encino	91436
Los Angeles	-118.442749023440	34.002250671387	Beethoven	3718	Los Angeles	90066
San Antonio	-98.547569274902	29.456710815430	MISTLETOE AVE	2736	San Antonio	78228
Fort Worth	-97.070800781250	32.777076721191	Holt	2507	Arlington	76006
Denton	-96.903831481934	33.177337646484	Bradford Pear	2209	Little Elm	75068
San Antonio	-98.631263000000	29.487174000000	TIMBER BND	5719	San Antonio	78238
Fort Worth	-97.468261718750	32.709590911865	Dawn	4224	Benbrook	76116
Dallas	-96.845046997070	32.680854797363	Oak Vista	1416	Dallas	75232
San Antonio	-98.496437000000	29.340719000000	Kopplow Pl	415	San Antonio	78221
Dallas	-96.636672000000	33.083675000000	Hillcrest	1333	Allen	75002
Dallas	-96.877990722656	32.990604400635	Cedarcrest	2217	Carrollton	75007
Los Angeles	-118.204391000000	33.906181000000	Ezmirlian	1717	Compton	90221
Fort Worth	-96.972862243652	32.846122741699	Anderson	2116	Irving	75062
San Antonio	-98.538650512695	29.471883773804	CROMWELL DR	39	San Antonio	78201
Fort Worth	-97.393981933600	32.735122680700	Birchman	4916	Fort Worth	76107
San Antonio	-98.462585449219	29.382162094116	FRANCES JEAN	132	San antonio	78223
Fort Worth	-97.282758000000	32.769164000000	kings	4413	fort worth	76111
San Antonio	-98.403976440430	29.529079437256	CLEAR SPRING DR	4434	San Antonio	78217
Los Angeles	-118.092269897460	33.792282104492	Stevely	2022	long beach	90815
Fort Worth	-97.090255737305	32.843891143799	Stonewall	513	Euless	76039
Houston Central	-95.452629089355	29.656766891479	Benning	4505	Houston	77035
Austin	0.000000000000	0.000000000000	Darlington	5504	Austin	78723
Atlanta	-84.537109375000	34.051631927490	England	332	Marietta	30066
Dallas	-96.786598205566	32.988731384277	Stanworth	17512	Dallas	75252
Dallas	-96.759741000000	32.955872000000	Laurel	1222	Richardson	75080
Dallas	-96.719795227051	32.946674346924	Carol	529	Richardson	75081
Austin	0.000000000000	0.000000000000	Brownwood	3608	Austin	78759
Houston Central	-95.491340637207	29.651472091675	Ashcroft	11630	Houston	77035
Houston Central	-95.598213195801	29.993865966797	Hiddenwood	15010	Houston	77070
Houston Central	-95.703636169434	29.833147048950	Autumn Meadow Dr	4210	Katy	77449
Denton	-96.997131000000	32.706851000000	San Sabastian	2602	Grand Prairie	75052
San Antonio	-98.520492553711	29.478694915771	HERMOSA DR	1535	San Antonio	78201
Dallas	-96.730018615723	33.053375244141	Deerfield	1900	Plano	75023
San Antonio	-98.501495361328	29.463443756104	W Lynwood	511	San Antonio	78212
Fort Worth	-97.087867736816	32.847785949707	DENTON	810	Euless	76039
Atlanta	-84.278622000000	33.736353000000	Don Juan lane	1880	Decatur	30032
San Antonio	-98.514083862305	29.596130371094	Summer Creek	16814	San Antonio	78248
Austin	-97.761505126953	30.424070358276	Three Oaks	11702	Austin	78759
Dallas	-96.758750000000	33.042655000000	Bandolino	3321	Plano	75023
Dallas	-96.705924987793	32.848117828369	Brookhurst	819	Dallas	75218
Fort Worth	-97.236846923828	32.863651275635	Glenhurst	6801	North Richland Hills	76182
San Antonio	-98.474197387695	29.424226760864	Glorietta	110	San Antonio	78202
Atlanta	-84.436973571777	33.740184783936	willard ave	543	atlanta	30310
Atlanta	-84.426063537598	33.955287933350	Kings	4351	Marietta	30067
Fort Worth	-97.276290893555	32.825653076172	Tracy	4949	Haltom City	76117
Houston Central	-95.709190368652	29.799510955811	Leafwood Ln	19307	Houston	77084
Fort Worth	-97.334396000000	32.813388000000	Weber	3862	Fort Worth	76106
Atlanta	-84.305885314941	33.949417114258	Lakesprings	5123	Dunwoody	30338
San Antonio	-98.521929000000	29.373653000000	Stonewall	1005	San Antonio	78211
Houston Central	-95.524429321289	29.602930068970	Lexington	1414	Missouri City	77489
Houston Central	-95.639785766602	29.741533279419	Burgoyne	14214	Houston	77077
Fort Worth	-97.451484680176	32.699684143066	Osbun	7641	Fort Worth	76116
Houston Central	-95.424064636230	29.828527450562	43rd St	1007	Houston	77018
Los Angeles	-118.358619689940	34.130714416504	Broadlawn	3708	Los Angeles	90068
Fort Worth	-97.167594909668	32.822437286377	Norwood	740	Hurst	76053
San Antonio	-98.619934082031	29.548397064209	Spring Lark	6618	San Antonio	78249
San Antonio	-98.468269000000	29.374193000000	monticello	409	San Antonio	78223
Dallas	-96.652671813965	32.847328186035	DRUMMOND	11370	Dallas	75228
Dallas	-96.714225000000	32.783893000000	Allview	7023	Dallas	75227
Houston Central	-95.593124389648	29.622915267944	Wellington Ln	9	Sugar Land	77478
Houston Central	-95.810142000000	29.792425000000	Sills	5253	Katy	77493
Dallas	-96.745742797852	33.021419525146	Regal	2700	Plano	75075
Denton	-96.887550354004	33.005840301514	Arundel	1834	Carrollton	75007
Fort Worth	-97.415840000000	32.762172000000	Kay	113	Westworth Village	76114
San Antonio	-98.377250671387	29.391834259033	Lake Bluff	5815	San Antonio	78222
Dallas	-96.705482482910	32.804485321045	Dorrington	2427	Dallas	75228
Fort Worth	-97.352226257324	32.655303955078	Cliffside	6124	Fort Worth	76134
Fort Worth	-97.319450378418	32.728645324707	Missouri	1408	Fort Worth	76104
Austin	-97.676195836735	30.354136530612	Brighton	1404	Austin	78753
Atlanta	-84.504263000000	33.870734000000	Mohawk	1699	Smyrna	30080
San Antonio	-98.518486022949	29.493974685669	Burwood	523	San Antonio	78213
Denton	-96.861289978027	33.021781921387	High Country	2226	Carrollton	75007
Dallas	-96.746955871582	32.966415405273	Wisteria	1207	Richardson	75080
Dallas	-96.860885620117	32.901622772217	Whitehall	3455	Dallas	75229
Austin	-97.630645751953	30.169536590576	Sky Harbor	12221	Del Valle	78617
Fort Worth	-97.369834899902	32.677280426025	Ridge	4757	Fort Worth	76133
San Antonio	-98.530242919922	29.463333129883	DONALDSON AVE	419	San Antonio	78201
Houston Central	-95.382728576660	30.089664459229	Rebecca Field	27538	Spring	77386
Dallas	-96.717132000000	32.883544000000	Estate	9818	Dallas	75238
San Antonio	-98.474525451660	29.377710342407	Linda Lou	120	San Antonio	78223
Fort Worth	-96.894500732422	33.102554321289	Carr	4616	The Colony	75056
Houston Central	-95.458831787109	29.832777023315	43rd	4514	Houston	77092
Houston Central	-95.338859000000	29.705467000000	Arvilla	4910	Houston	77021
Atlanta	-84.314140319824	33.703239440918	MARY LOU	1858	Atlanta	30316
San Antonio	-98.507263183594	29.456733703613	Mulberry	835	San Antonio	78212
San Antonio	-98.336692810059	29.487487792969	FIRESTONE PKWY	6406	San Antonio	78244
Denton	-96.905632019043	33.090248107910	Kean	9	The Colony	75056
Fort Worth	-97.282524108887	32.864814758301	China Rose	4752	Fort Worth	76137
Austin	0.000000000000	0.000000000000	Saint Leger	1500	Pflugerville	78660
Dallas	-96.676124000000	33.032344000000	Raintree	2805	Plano	75074
Fort Worth	-97.394271850586	32.655181884766	Wrigley	6176	Fort worth	76113
San Antonio	-98.672569274902	29.532022476196	Charline	9710	San Antonio	78254
Houston Central	-95.628585815430	29.767835617065	Walden Hill	1103	Houston	77077
Atlanta	-84.280204772949	33.804206848145	FOX HILLS	2674	Decatur	30033
San Antonio	-98.467636108398	29.375165939331	Stratford	419	San Antonio	78223
San Antonio	-98.467475891113	29.375164031982	Stratford	421	San Antonio	78223
Dallas	-96.717561000000	33.015269000000	Janwood	1204	Plano	75075
Houston Central	-95.490097045898	30.028272628784	Nodaway Ln	5227	Spring	77379
Philadelphia	-75.289451599121	39.935714721680	DENNISON	3836	DREXEL HILL	19026
San Antonio	-98.357093811035	29.576122283936	Hillside	14711	San Antonio	78233
Los Angeles	-118.126945495610	33.799263000488	Heather	2312	Long Beach	90815
Dallas	-96.694236755371	32.857372283936	Fernald	11012	Dallas	75218
Denton	-96.872871398926	33.101352691650	Rutledge	5404	The Colony	75056
Dallas	-96.528953552246	32.940734863281	Hogan	9201	Rowlett	75089
Fort Worth	-97.463531494141	32.761859893799	Saddle	205	Fort Worth	76108
Fort Worth	-97.375617980957	32.730998992920	Alamo	3933	Fort Worth	76107
Fort Worth	-97.340774536133	32.557426452637	Shady Oaks	116	Burleson	76028
Dallas	-97.227638000000	32.863628000000	Oldham	7220	North Richland Hills	76182
Fort Worth	-97.386718750000	32.672771453857	Cordova	5125	Fort Worth	76132
Dallas	-96.834808349609	32.916625976562	Boca Bay	4381	Dallas	75244
Houston Central	-95.489181518555	29.674051284790	Queensloch Dr	5803	Houston	77096
Los Angeles	-116.451911926270	33.787292480469	Woodside	69365	Cathedral City	92234
Houston Central	-95.764030456543	29.809623718262	Braken Manor	22614	Katy	77449
Dallas	-96.610275268555	32.874832153320	Merrimac	1425	Garland	75043
Fort Worth	-97.361930847168	32.696632385254	Jeanette	3612	Fort Worth	76109
Atlanta	-84.291827000000	33.736929000000	Hooper	1869	Decatur	30032
Houston Central	-95.597221374512	29.578313827515	Sleepy Hollow Dr	3130	Sugar Land	77479
Denton	-96.896675000000	33.012111000000	Grasmere	3716	Carrollton	75007
Houston Central	-95.359130859375	29.809976577759	Fairbanks St	904	Houston	77009
Houston Central	-95.812316894531	29.794857025146	Lincoln Round Dr	1606	Katy	77493
Atlanta	-84.318496704102	33.764171600342	Palifox	2137	Atlanta	30307
Dallas	-96.982795715332	32.846897125244	Ridgewood	2717	Irving	75062
Atlanta	-84.268730163574	33.743724822998	san gabriel ave	1664	Decatur	30032
Houston Central	-95.591499328613	29.911439895630	Yearling	11706	Houston	77065
Fort Worth	-97.392196655273	32.734153747559	Calmont	4816	Fort Worth	76107
Houston Central	-95.521026611328	29.983570098877	Wanakah	5811	Houston	77069
Fort Worth	-97.311866760254	32.784446716309	Honeysuckle	2325	Fort Worth	76111
Fort Worth	-97.398437500000	32.801830291748	Skyline	2707	Fort Worth	76114
Philadelphia	-75.291687011719	39.940589904785	PLUMSTEAD	3421	DREXEL HILL	19026
Dallas	-96.717185974121	32.866260528564	Fitzroy	9815	Dallas	75238
Denton	-96.923072814941	33.133426666260	Lariat	2110	Frisco	75034
San Antonio	-98.544486000000	29.518413000000	Briarfield	3023	San Antonio	78230
San Antonio	-98.496393000000	29.647741000000	Oak Path	1110	San Antonio	78258
Houston Central	-95.466842000000	29.680463000000	Braesvalley	5023	Houston	77096
Dallas	-96.931472778320	32.849582672119	Garrett	3339	Irving	75062
Fort Worth	-97.149688720703	32.869983673096	Plantation	1112	Colleyville	76034
Fort Worth	-97.431488037109	32.726848602295	Olive	3209	Fort Worth	76116
Dallas	-96.743112000000	32.884799000000	Fair Oaks	8022	Dallas	75231
Denton	-97.341502000000	32.639378000000	Malborough	7333	Fort Worth	76134
San Antonio	-98.498115539551	29.480592727661	MARIPOSA DR	267	San Antonio	78212
San Antonio	NULL	NULL	Oakheath	3526	San Antonio	78247
Dallas	-96.958221435547	32.831615447998	Glenhaven	1010	Irving	75061
Fort Worth	-97.276985168457	32.682758331299	Paris	5204	Fort Worth	76119
Fort Worth	-97.157455444336	32.870555877686	Southwood	4110	Colleyville	76034
San Antonio	-98.376098632812	29.514940261841	Balfour Dr	609	Windcrest	78239
San Antonio	-98.472999572754	29.378757476807	Mebane	304	San Antonio	78223
Houston Central	-95.329627000000	29.727338000000	Godwin	1466	Houston	77023
Houston Central	-95.212944030762	30.061132431030	Vista Manor	2202	Kingwood	77339
San Antonio	-98.378128051758	29.522687911987	CRESTWAY DR	537	San Antonio	78239
Houston Central	-95.424011230469	29.688720703125	Hatton St	8506	Houston	77025
Denton	-97.027320000000	33.034549000000	Elmwood	1244	Lewisville	75067
Dallas	-96.654869079590	32.835704803467	Tam O Shanter	3706	Dallas	75150
Philadelphia	-75.285013000000	39.953006000000	BROOKFIELD	465	DREXEL HILL	19026
Fort Worth	-97.230415000000	32.838764000000	Corona	7105	North Richland Hills	76180
Los Angeles	-118.352561950680	34.100669860840	Gardner	1628	Los Angeles	90046
Fort Worth	-96.906204223633	32.971302032471	Jeanette	1009	Carrollton	75006
Austin	-97.610939000000	30.347181000000	Avering	11345	Austin	78754
Houston Central	-95.193527000000	30.060209000000	Deerbrook	3719	Houston	77339
Fort Worth	-97.208526000000	32.771720000000	Sandstone	6941	Fort Worth	76120
Fort Worth	-97.422767639160	32.745738983154	Inca	6317	Fort Worth	76116
Houston Central	-95.513305664062	29.579502105713	Bird Haven Ln	16911	Missouri City	77489
Atlanta	-84.441902000000	33.740039000000	south gordon	1651	atlanta	30310
Dallas	-96.754463195801	32.843025207520	Saratoga	6317	Dallas	75214
Los Angeles	-118.116073608400	34.172058105469	Oxford	1510	Pasadena	91104
Dallas	-97.048179626465	33.045967102051	Bluestem	4421	Flower Mound	75028
San Antonio	-98.581993103027	29.484117507935	LAMBETH DR	4818	San Antonio	78228
Fort Worth	-97.389572000000	32.664485000000	Trail Lake	5708	Fort Worth	76133
Denton	-96.888587951660	33.006069183350	Arundel	1825	Carrollton	75007
Fort Worth	-97.293647766113	32.701824188232	Annglen	2433	Fort Worth	76119
Dallas	-96.637397766113	32.770771026611	Sesame	308	Mesquite	75149
Dallas	-96.724258422852	32.996562957764	Forest Grove	421	Richardson	75080
Atlanta	-84.425125000000	33.739650000000	w end pl sw	567	atlanta	30310
Houston Central	-95.494834899902	29.646421432495	Effingham Dr	5914	Houston	77035
San Antonio	-98.412933349609	29.512472152710	Hunters	4111	San Antonio	78218
Los Angeles	-118.136260986330	34.175662994385	Atchison	696	Pasadena	91104
Atlanta	-84.520515441895	33.869689941406	Oakdale	1137	Smyrna	30080
San Antonio	-98.612968000000	29.555606000000	Echo Canyon	6318	San Antonio	78249
Houston Central	-95.164207458496	30.010639190674	Hickory Wind Dr	20118	Humble	77346
Austin	-97.654861000000	30.306587000000	Boulder	5706	Austin	78724
Houston Central	-95.123748000000	29.579128000000	Poplar Springs	15503	Houston	77062
Houston Central	-95.168113708496	29.535957336426	Colonial Ridge	2530	Friendswood	77598
Denton	-96.734329223633	33.023200988770	MERCEDES	1816	PLANO	75075
Dallas	-96.719657897949	33.073768615723	Burlington	1424	Plano	75025
Dallas	-96.571754455566	32.895133972168	Sandra	3118	Rowlett	75088
Houston Central	-95.285616070032	29.729658365250	Baltimore	7842	Houston	77012
Philadelphia	-75.177497863770	39.930961608887	Mountain	1937	Philadelphia	19145
Houston Central	-95.638801574707	29.905075073242	Pebble Lake	15511	Houston	77095
Dallas	-96.856620788574	33.137416839600	Ferndale	3738	Frisco	75034
San Antonio	-98.388572692871	29.514167785645	Crestwind	317	San Antonio	78239
Denton	-96.863319396973	33.100265502930	Fox	7133	The Colony	75056
San Antonio	-98.443794000000	29.568334000000	FLORAL WAY	2910	SAN ANTONIO	78232
Dallas	-96.692174000000	32.865753000000	Hackney	8605	Dallas	75238
Dallas	-96.652603149414	32.820011138916	Sidney	3513	Mesquite	75150
Los Angeles	-117.756515502930	34.038715362549	Mayfair	754	Pomona	91766
Dallas	-97.108963012695	32.622432708740	Milton	408	Arlington	76002
Los Angeles	-118.099067687990	34.138408660889	Santa Anita	445	Pasadena	91107
Fort Worth	-97.374122000000	32.742103000000	Harley	3813	Fort Worth	76107
Fort Worth	-97.396026611328	32.734188079834	Calmont	5020	Fort Worth	76107
Fort Worth	-97.351234436035	32.333419799805	County Road 429	1640	Cleburne	76031
Los Angeles	-117.703735351560	34.068965911865	Fauna	4649	Montclair	91763
Fort Worth	-97.231544494629	32.881072998047	Shadydale	6828	Fort Worth	76180
Houston Central	-95.760162353516	29.762834548950	Hidden Canyon	1219	Katy	77450
Denton	-96.910484313965	33.092350006104	Harbor	3949	The Colony	75056
Dallas	-96.627769470215	32.846408843994	Meadowglen	1625	Mesquite	75150
Fort Worth	-97.247380390763	32.886144965887	Park	6429	Watauga	76148
Atlanta	-84.294113159180	33.736545562744	ashburton ave	567	Decatur	30032
Fort Worth	-96.873985000000	32.936096000000	Amber	3060	Farmers Branch	75234
Dallas	-96.694282531738	32.800533294678	Londonderry	8437	Dallas	75228
Atlanta	-84.375473022461	33.729412078857	Kendrick	368	Atlanta	30315
Dallas	-96.703567504883	32.796932220459	Sunnywood	5818	Dallas	75228
Houston Central	-95.721946716309	29.772062301636	Kempsford	1011	Katy	77450
Dallas	-96.605415344238	32.776134490967	Royalcrest	915	Mesquite	75149
Fort Worth	-97.380805969238	32.646289825439	Santiago	6712	Fort Worth	76133
Houston Central	-95.178863525391	29.531307220459	Blackhawk Blv	16506	Friendswood	77546
Dallas	-96.711891174316	32.953300476074	Midway	1003	Richardson	75081
Houston Central	-95.520797729492	29.574094772339	Cherry Creek	3222	Missouri City	77549
San Antonio	-98.357139587402	29.513538360596	Epson	6611	San Antonio	78239
San Antonio	-98.492614746094	29.410619735718	Wickes	130	San Antonio	78210
San Antonio	-98.506729125977	29.454139709473	Mistletoe	807	San Antonio	78212
San Antonio	-98.506591796875	29.454139709473	Mistletoe	805	San Antonio	78212
San Antonio	-98.487098693848	29.416210174561	Matagorda	802	San Antonio	78210
Denton	-96.881576538086	33.001934051514	Christie	2025	Carrollton	75007
Dallas	-96.830154000000	32.920322000000	Mill Creek	4546	Dallas	75244
Denton	-96.886642456055	33.088695526123	Strickland	5005	The Colony	75056
Denton	-96.864524841309	33.004749298096	MICHAELANGELO	18452	Dallas	75287
Houston Central	-95.005516052246	29.767122268677	Inverness	5115	Baytown	77521
Austin	-97.761093139648	30.332735061646	Balcones	5004	Austin	78731
San Antonio	-98.346061706543	29.530275344849	Fortune Ridge Dr	9735	Converse	78109
Los Angeles	-118.204864501950	34.114311218262	Raphael	5119	Los Angeles	90042
Los Angeles	-117.366851806640	33.983715057373	Mulberry	3394	Riverside	92501
Houston Central	-95.248786926270	30.042083740234	Laurel Springs Ln	1806	Humble	77339
Dallas	-96.753364562988	33.065265655518	Santana	3201	Plano	75023
San Antonio	-98.584373474121	29.498388290405	DOROTHY LOUISE DR	6819	San Antonio	78229
Atlanta	-84.293540000000	33.749931000000	Oakridge	80	Atlanta	30317
Austin	-97.740127563477	30.351596832275	Pinewood	2712	Austin	78757
Fort Worth	-97.240188598633	32.589992523193	Woodcrest	5640	Fort Worth	76140
Denton	-96.589836120605	32.758640289307	Grande	728	Mesquite	75149
Houston Central	-95.514846801758	29.951820373535	Clover Lane Ct	11515	Houston	77066
Dallas	-97.013710000000	32.731784000000	Shawnee	1029	Grand Prairie	75051
Dallas	-96.681152000000	33.022411000000	Forestcrest	2212	Plano	75074
Fort Worth	-97.109802246094	32.596763610840	Hastings	1716	Mansfield	76063
Houston Central	-95.671226501465	29.705907821655	Navidad	6614	Houston	77083
Fort Worth	-97.120895385742	32.647415161133	Heatherglen	6009	Arlington	76017
Denton	-96.721488952637	32.872692108154	Wisterwood	9715	Dallas	75238
Dallas	-96.542335510254	32.733329772949	Walden	2200	Mesquite	75181
Dallas	-96.689926000000	32.853977000000	Sahara	11636	Dallas	75218
Dallas	-96.758148193359	33.030353546143	Newcastle	2308	Plano	75075
San Antonio	-98.313911437988	29.504875183105	Mannington	8427	Converse	78109
Fort Worth	-97.343040000000	32.654563000000	Rockmoor	1508	Edgecliff Village	76134
Houston Central	-95.649070739746	29.840133666992	Moary Firth	16411	Houston	77084
Fort Worth	-96.864601135254	32.890232086182	Marquis	10512	Dallas	75229
Houston Central	-95.512626647949	29.603860855103	Kingman Dr	1802	Missouri City	77489
Houston Central	-95.312126000000	29.721832000000	Park	6601	Houston	77023
Houston Central	-95.725013732910	29.766122817993	Shillington Dr	1315	Katy	77450
Atlanta	-84.312881469727	33.726249694824	Longdale	1891	Decatur	30032
Austin	-97.724581625000	30.427972500000	Transit	4806	Austin	78727
Fort Worth	-97.340438842773	32.652450561523	Linwood	1401	Edgecliff Village	76134
Atlanta	-84.472984313965	33.814949035645	Spink	2168	Atlanta	30318
Dallas	-96.705245971680	32.805423736572	Banquo	8406	Dallas	75228
Atlanta	-84.268730163574	33.743724822998	san gabriel 2	1664	Decatur	30032
Fort Worth	-97.231704711914	32.724441528320	Carverly	2101	Fort Worth	76112
Atlanta	-84.523902893066	34.057754516602	Trace	902	Marietta	30066
Atlanta	-84.440132141113	33.735977172852	Olympian	1600	Atlanta	30310
San Antonio	-98.356986999512	29.575962066650	Hillside	14707	San Antonio	78233
Houston Central	-95.585350036621	29.742019653320	Hickory Lawn	2246	Houston	77077
San Antonio	-98.373168945312	29.565290451050	Wood Oak St	5626	San Antonio	78233
Dallas	-96.686439514160	32.860225677490	Dalron	11218	Dallas	75218
Houston Central	-95.442848205566	30.044832229614	Royal Lagoon	19402	Spring	77388
Atlanta	-84.361145019531	33.776420593262	Greenwood	797	Atlanta	30306
San Antonio	-1.000000000000	-1.000000000000	Cimarron	8411	San Antonio	78218
Denton	-1.000000000000	-1.000000000000	Southern Pines	14316	Farmers Branch	75234
San Antonio	-98.485549000000	29.456294000000	QUEENS CRESCENT ST	431	San Antonio	78212
Los Angeles	-118.149688720700	34.063236236572	La Crescenta	2604	Alhambra	91803
San Antonio	-98.376361000000	29.385426000000	Autumn Lk	5931	San Antonio	78222
Fort Worth	-97.377929000000	32.736430000000	El Campo	4024	Fort Worth	76107
Dallas	-97.231693000000	32.767091000000	Havenwood	841	Fort Worth	76112
Dallas	-96.775265000000	32.962345000000	La Risa	7710	Dallas	75248
Fort Worth	-97.376205444336	32.680965423584	Norwich	4621	Fort Worth	76109
Dallas	-96.791778564453	32.978733062744	Southpoint	6721	Dallas	75248
Fort Worth	-97.403544000000	32.752079000000	Dennis	5429	Fort Worth	76114
San Antonio	-98.665863000000	29.412975000000	Port Hudson	9135	San Antonio	78245
Houston Central	-95.565628051758	29.754421234131	Candlewood Dr	10711	Houston	77042
San Antonio	-98.458602905273	29.501920700073	Larkwood	106	San Antonio	78209
Philadelphia	-75.141510009766	39.979183197021	Leithgow	1847	Philadelphia	19122
Houston Central	-95.248466000000	30.043657000000	Golden Bear	607	Kingwood	77339
Houston Central	-95.772087097168	29.777486801147	Provincial Blv	22955	Katy	77450
Fort Worth	-97.031669616699	33.123844146729	Beck	611	Lake Dallas	75065
Houston Central	-95.367279052734	30.050691604614	Burkegate Dr	4507	Spring	77373
Fort Worth	-97.398262000000	32.666053000000	Albermarle	4854	Fort Worth	76132
Fort Worth	-97.311683654785	32.784938812256	Carnation	2328	Fort Worth	76111
Los Angeles	-118.117126464840	34.155139923096	Monte Vista	1614	Pasadena	91106
Fort Worth	-97.383003234863	32.724517822266	Ashland	3713	Fort Worth	76107
Houston Central	-95.242645263672	30.038274765015	Chestnut Ridge Rd	1503	KINGWOOD	77339
Philadelphia	-75.225997924805	40.028976440430	Ritchie	4534	Philadelphia	19127
Dallas	-96.633064270020	32.847534179688	Heritage	917	Garland	75043
Fort Worth	-97.282699000000	32.767425000000	Goddard	4409	Fort Worth	76111
Dallas	-96.654937744141	32.936260223389	Trowbridge	1806	Garland	75044
Fort Worth	-97.138832092285	32.882534027100	Arthur	1801	Colleyville	76034
Fort Worth	-97.432266235352	32.729248046875	Olive	3104	Fort Worth	76116
Denton	-97.307037353516	32.781558990479	Primrose	2712	Fort Worth	76111
Houston Central	-95.428337097168	29.837903976440	Bethlehem St	1158	Houston	77018
Dallas	-96.831504000000	32.901348000000	Crooked	4509	Dallas	75229
Dallas	-96.471359252930	32.966323852539	Odell	7103	Rockwall	75087
Fort Worth	-97.359619140625	32.701129913330	Cockrell	3316	Fort Worth	76109
Los Angeles	-118.123329162600	34.050899505615	McComb	1093	Monterey Park	91755
Philadelphia	-75.184020996094	39.933044433594	Cross	2339	Philadelphia	19146
Dallas	-96.989936828613	32.717140197754	Varsity	1933	Grand Prairie	75051
Denton	-96.891029357910	33.078590393066	Alta Oaks	4800	The Colony	75056
Philadelphia	-75.302276611328	39.952011108398	EDMONDS	728	DREXEL HILL	19026
Fort Worth	-97.237869262695	32.911716461182	Muirfield	604	Keller	76248
Dallas	-96.654785156250	32.801010131836	Bahamas	3633	Mesquite	75150
Dallas	-96.806983000000	33.011341000000	Willow Wood	5835	Dallas	75252
Fort Worth	-97.234390000000	32.827388000000	Steven	4312	North Richland Hills	76180
Fort Worth	-97.095207000000	32.717262000000	Carswell	1613	Arlington	76010
Denton	-97.350807189941	32.715072631836	Wayside	2521	Fort Worth	76110
Houston Central	-95.365676879883	30.041650772095	Naples Dr	23115	Spring	77373
Dallas	-96.601066589355	32.871112823486	Country Club	3706	Garland	75043
Denton	-96.870315551758	32.988723754883	Roundrock	2232	Carrollton	75007
Austin	-97.726837158203	30.318613052368	Genard	501	Austin	78751
Los Angeles	-118.256935119630	33.872478485107	Prondall	17415	Carson	90746
Dallas	-97.103767395020	32.687225341797	Countryside	104	Arlington	76014
San Antonio	-98.512168884277	29.604139328003	Blanco Key	16435	San Antonio	78247
Los Angeles	-117.877288818360	33.741519927979	Myrtle	920	Santa Ana	92703
Houston Central	-95.207389831543	29.625089645386	Palmfree	12226	Houston	77034
Austin	-97.787223815918	30.132503509521	Pinehurst	11145	Austin	78747
Houston Central	-95.533592224121	29.815559387207	Moorberry	9510	Hsouston	77080
San Antonio	-98.430664062500	29.368234634399	Tipperary	123	San Antonio	78223
Fort Worth	-97.358467102051	32.660793304443	Waits	5809	Fort Worth	76133
Dallas	-96.610481262207	32.787918090820	Belmont	1735	Mesquite	75149
San Antonio	-98.538482000000	29.584991000000	INWOOD MANOR	39	San Antonio	78248
Dallas	-96.983139038086	32.965286254883	Cambria	454	Coppell	75019
Fort Worth	-97.372840000000	32.691764000000	Trail Lake	3916	Fort Worth	76109
Los Angeles	-118.119941711430	34.166118621826	Wesley	1158	Pasadena	91104
Fort Worth	-97.353965759277	32.733650207520	Rosedale	2336	Fort Worth	76110
Atlanta	-84.429328918457	33.731136322021	Richland	1273	Atlanta	30310
Fort Worth	-97.214797000000	32.814498000000	Landy	3533	Richland Hills	76118
Fort Worth	-97.244850000000	32.815536000000	Rogene	3635	North Richland Hills	76180
Fort Worth	-97.330764770508	32.551456451416	Hillery	537	Burleson	76028
Dallas	-96.615455000000	32.843269000000	Country View	613	Garland	75043
Houston Central	-95.375701904297	29.795190811157	Enid St	501	Houston	77009
Dallas	-96.872505187988	32.883186340332	Timberview	3050	Dallas	75229
San Antonio	-98.611427307129	29.530319213867	Brook Green	9507	San Antonio	78250
Los Angeles	-117.363677978520	34.118396759033	Marcella	1016	Rialto	92376
San Antonio	-98.624771118164	29.358390808105	HAZEL VALLEY ST	6146	San Antonio	78242
Los Angeles	-117.317398071290	33.976963043213	Spieth	264	Riverside	92507
Dallas	-96.773643493652	33.176326751709	Del Rio	12031	Frisco	75035
Fort Worth	-97.255294799805	32.870124816895	Brandywine	6924	Watauga	76148
Los Angeles	-118.210617065430	34.164321899414	Jennings	1	Los Angeles	90032
Dallas	-96.729682000000	32.900508000000	Glen Springs	9105	Dallas	75243
Fort Worth	-96.653732299805	32.821712493896	Hyde Park	4201	Mesquite	75150
Fort Worth	-96.613105773926	32.781085968018	Hillcrest	1327	Mesquite	75149
San Antonio	-98.520637512207	29.494852066040	DAWNVIEW LN	527	San Antonio	78213
Houston Central	-95.297569274902	30.011621475220	BOLTON BRIDGE LN	19906	HUMBLE	77338
Austin	-97.680831909180	30.385623931885	Hornsby	11707	Austin	78753
Dallas	-96.671081542969	33.019821166992	15th	3316	Plano	75074
San Antonio	-98.533195495605	29.505332946777	Lively Dr	322	San Antonio	78213
Fort Worth	-97.264816284180	32.727058410645	Avenue J	4613	Fort Worth	76105
Houston Central	-95.621459960938	29.895641326904	Sandalfoot	14014	Houston	77095
San Antonio	-98.447883000000	29.520959000000	Haverford Dr	415	San Antonio	78217
Fort Worth	-97.246093750000	32.755287170410	Tierney	5054	Fort Worth	76112
Dallas	-96.897254943848	33.014141082764	Chesterfield	1706	Carrollton	75007
Austin	-97.689865112305	30.309656143188	Northridge	2007	Austin	78723
Philadelphia	-75.173301696777	39.928752899170	CHADWICK	1752	PHILADELPHIA	19145
Houston Central	-95.635070800781	29.850713729858	Stanhope	5054	Houston	77084
Dallas	-96.717315673828	32.888221740723	Vistadale	9810	Dallas	75238
Dallas	-96.991111000000	32.679008000000	Brevito	1128	Grand Prairie	75052
Los Angeles	-118.262123107910	33.831611633301	234th	1721	Carson	90001
Denton	-97.018951416016	33.008674621582	Cassion	1047	Lewisville	75067
Fort Worth	-96.864486694336	32.751949310303	El Tivoli	2738	Dallas	75211
Dallas	-96.993682861328	32.703639984131	Cielo Vista Drive	805	Grand Prairie	75052
Fort Worth	-97.389587402344	32.648250579834	CARTAGENA	4445	Fort Worth	76133
Fort Worth	-97.386840820312	32.726902008057	Diaz	4517	Fort Worth	76107
San Antonio	-98.442787170410	29.535911560059	Tandom	10506	San Antonio	78217
Dallas	-96.691497802734	32.848526000977	Palace	10805	Dallas	75218
Houston Central	-95.514076232910	30.109203338623	Hickorycrest	6122	Spring	77389
Dallas	-96.636184692383	32.824054718018	Linhaven	2714	Mesquite	75150
Dallas	-97.021644000000	32.751850000000	Burleson	1313	Grand Prairie	75050
Denton	-97.373977661133	32.741741180420	Lafayette	3808	Fort Worth	76107
Atlanta	-84.432662963867	33.731189727783	Richland	1375	Atlanta	30310
Los Angeles	-118.415672302250	34.021366119385	Kelton	3532	Los Angeles	90034
Austin	-97.641670000000	30.453729000000	Parkway	16415	Pflugerville	78660
Austin	-97.830825805664	30.125284194946	Viento del Sur	13003	Manchaca	78652
Fort Worth	-96.998847000000	32.723373000000	Acosta	1606	Grand Prairie	75051
Dallas	-96.830848693848	32.747470855713	Melba	513	Dallas	75208
Austin	-97.952987670898	29.939582824707	Merrywood	204	San Marcos	78666
San Antonio	-98.500366210938	29.405788421631	Fest	220	San Antonio	78204
Fort Worth	-97.226127624512	33.001544952393	Pine	408	Roanoke	76262
Dallas	-96.709091186523	32.791416168213	Enchanted	5218	Dallas	75227
St. Petersburg	-82.602302551270	27.808338165283	OVERLOOK	4007	ST PETERSBURG	33703
Austin	-97.708854675293	30.333929061890	Lisa	209	Austin	78752
Dallas	-96.797004000000	32.894477000000	Royal	6330	Dallas	75230
Dallas	-96.701820373535	32.806682586670	Banquo	8492	Dallas	75228
Fort Worth	-97.383323000000	32.658908000000	Wharton	5733	Fort Worth	76133
Atlanta	-84.647148132324	33.906799316406	Hannah	1838	Powder Springs	30127
Dallas	-96.876510000000	32.692211000000	Willow Crest	3405	Dallas	75233
Fort Worth	-97.362716674805	32.498321533203	Oakbrook	543	Burleson	76028
Dallas	-96.865997314453	32.903633117676	Dartmoor	3240	Dallas	75229
Fort Worth	-97.343101501465	32.708328247070	Ryan	2932	Fort Worth	76110
Philadelphia	-75.159446716309	39.923450469971	8th	2019	Philadelphia	19148
Fort Worth	-97.267219543457	32.803874969482	Meadow Oaks	3129	Haltom City	76117
Fort Worth	-97.099868774414	32.718219757080	Kelly	708	Arlington	76010
Denton	-97.116493225098	33.221820831299	Paco	1304	Denton	76206
Dallas	-96.808242797852	33.009368896484	Sand Shell	5810	Dallas	75252
Philadelphia	-75.174819946289	39.935703277588	Titan	1827	Philadelphia	19146
Fort Worth	-96.609672546387	32.779811859131	Alta Vista	1418	Mesquite	75149
Denton	-96.888473000000	33.079414000000	Alta Oaks	4844	The Colony	75056
Houston Central	-95.130607604980	29.564367294312	Wavecrest	963	Houston	77062
Fort Worth	-97.234107971191	32.766010284424	Oakmont	5621	Fort Worth	76112
Fort Worth	-97.363807678223	32.663539886475	WREN	3405	Fort Worth	76133
Los Angeles	-116.534179687500	33.845916748047	Caleta	1250	Palm Springs	92262
Fort Worth	-97.223876953125	32.821525573730	Richlynn	7225	Richland Hills	76118
Fort Worth	-97.303680419922	32.788444519043	Springdale	2909	Fort Worth	76111
Austin	-97.793853759766	30.197505950928	Echo	1001	Austin	78745
San Antonio	-98.619606018066	29.548395156860	SPRING LARK ST	6612	San Antonio	78249
Denton	-97.031738281250	33.141094207764	Winding Oak	769	Lake Dallas	75065
Los Angeles	-117.878677368160	33.772861480713	Freeman	2623	Santa Ana	92706
Fort Worth	-97.224792000000	32.862049000000	Sudbury	6328	North Richland Hills	76182
San Antonio	-98.647926330566	29.461368560791	Kingswell	2523	San Antonio	78251
Fort Worth	-96.710075378418	32.783199310303	Hazelhurst	4821	Dallas	75227
Fort Worth	-97.224990000000	32.828784000000	Briley	7321	North Richland Hills	76180
Fort Worth	-97.470825000000	32.731201000000	San Marcos	2945	Fort Worth	76116
San Antonio	-98.514785766602	29.422901153564	Las Moras	418	San Antonio	78148
San Antonio	-98.359184265137	29.507577896118	Shadow Frst	8006	San Antonio	78239
Fort Worth	-97.127021000000	32.567512000000	Willow	115	Mansfield	76063
Dallas	-96.670890808105	32.840854644775	Winthrop	2428	Dallas	75228
Los Angeles	-117.632125854490	34.112781524658	Alta	1360	Upland	91786
St. Petersburg	-82.706794000000	27.787593000000	16th Avenue N	5393	Saint Petersburg	33710
San Antonio	-98.493797302246	29.564016342163	Arch Bluff	414	San Antonio	78216
Fort Worth	-97.372840000000	32.691764000000	Trail Lake #2	3916	Fort Woth	76109
