[
  [
    {
      "city": "Atlanta",
      "longitude": "-84.445373535156",
      "streetname": "Westwood",
      "latitude": "33.738948822021",
      "streetnum": "1761",
      "office_name": "Atlanta",
      "zipcode": "30310"
    },
    {
      "city": "Atlanta",
      "longitude": "-84.426315307617",
      "streetname": "Oak Street",
      "latitude": "33.741111755371",
      "streetnum": "1177",
      "office_name": "Atlanta",
      "zipcode": "30310"
    },
    {
      "city": "Decatur",
      "longitude": "-84.262062072754",
      "streetname": "Flamingo",
      "latitude": "33.818630218506",
      "streetnum": "3143",
      "office_name": "Atlanta",
      "zipcode": "30033"
    },
    {
      "city": "Atlanta",
      "longitude": "-84.320236000000",
      "streetname": "BRANNEN",
      "latitude": "33.714417000000",
      "streetnum": "2093",
      "office_name": "Atlanta",
      "zipcode": "30316"
    },
    {
      "city": "Jonesboro",
      "longitude": "-84.300094604492",
      "streetname": "Old South",
      "latitude": "33.549209594727",
      "streetnum": "7505",
      "office_name": "Atlanta",
      "zipcode": "30236"
    },
    {
      "city": "Smyrna",
      "longitude": "-84.563194000000",
      "streetname": "Herren",
      "latitude": "33.860645000000",
      "streetnum": "3829",
      "office_name": "Atlanta",
      "zipcode": "30082"
    },
    {
      "city": "Decatur",
      "longitude": "-84.298355102539",
      "streetname": "Hill Park",
      "latitude": "33.813518524170",
      "streetnum": "2223",
      "office_name": "Atlanta",
      "zipcode": "30033"
    },
    {
      "city": "Chamblee",
      "longitude": "-84.251869201660",
      "streetname": "Medinah",
      "latitude": "33.876583099365",
      "streetnum": "3016",
      "office_name": "Atlanta",
      "zipcode": "30341"
    },
    {
      "city": "Decatur",
      "longitude": "-84.261722000000",
      "streetname": "Rosewood",
      "latitude": "33.730839900000",
      "streetnum": "2032",
      "office_name": "Atlanta",
      "zipcode": "30032"
    },
    {
      "city": "Atlanta",
      "longitude": "-84.371536000000",
      "streetname": "Chateaugay",
      "latitude": "33.871490000000",
      "streetnum": "495",
      "office_name": "Atlanta",
      "zipcode": "30342"
    },
    {
      "city": "Decatur",
      "longitude": "-84.289001464844",
      "streetname": "Willivee",
      "latitude": "33.811176300049",
      "streetnum": "1281",
      "office_name": "Atlanta",
      "zipcode": "30033"
    },
    {
      "city": "Decatur",
      "longitude": "-84.299659729004",
      "streetname": "Daniel",
      "latitude": "33.738040924072",
      "streetnum": "531",
      "office_name": "Atlanta",
      "zipcode": "30032"
    },
    {
      "city": "Atlanta",
      "longitude": "-84.326889038086",
      "streetname": "Wilkinson",
      "latitude": "33.740821838379",
      "streetnum": "420",
      "office_name": "Atlanta",
      "zipcode": "30317"
    },
    {
      "city": "Atlanta",
      "longitude": "-84.260864257812",
      "streetname": "Rangewood",
      "latitude": "33.863834381104",
      "streetnum": "2645",
      "office_name": "Atlanta",
      "zipcode": "30345"
    },
    {
      "city": "Decatur",
      "longitude": "-84.305669000000",
      "streetname": "Delphine",
      "latitude": "33.732638900000",
      "streetnum": "2007",
      "office_name": "Atlanta",
      "zipcode": "30032"
    },
    {
      "city": "Decatur",
      "longitude": "-84.258712768555",
      "streetname": "GABLEWOOD",
      "latitude": "33.821331024170",
      "streetnum": "3188",
      "office_name": "Atlanta",
      "zipcode": "30033"
    },
    {
      "city": "Decatur",
      "longitude": "-84.236116000000",
      "streetname": "Austin",
      "latitude": "33.752373900000",
      "streetnum": "1376",
      "office_name": "Atlanta",
      "zipcode": "30032"
    }
  ],
  [
    {
      "city": "Dallas",
      "longitude": "-96.858749389600",
      "streetname": "Merrell",
      "latitude": "32.888092041000",
      "streetnum": "3605",
      "office_name": "Dallas",
      "zipcode": "75229"
    },
    {
      "city": "Dallas",
      "longitude": "-96.858810000000",
      "streetname": "Timber Trail",
      "latitude": "32.885014000000",
      "streetnum": "10218",
      "office_name": "Dallas",
      "zipcode": "75229"
    },
    {
      "city": "Dallas",
      "longitude": "-96.652984619100",
      "streetname": "Red Cloud",
      "latitude": "32.740989685100",
      "streetnum": "1632",
      "office_name": "Dallas",
      "zipcode": "75217"
    },
    {
      "city": "Irving",
      "longitude": "-96.960922241200",
      "streetname": "4th",
      "latitude": "32.810478210400",
      "streetnum": "1212",
      "office_name": "Dallas",
      "zipcode": "75060"
    },
    {
      "city": "Dallas",
      "longitude": "-96.779137000000",
      "streetname": "Tophill",
      "latitude": "32.952518000000",
      "streetnum": "7443",
      "office_name": "Dallas",
      "zipcode": "75248"
    },
    {
      "city": "Fairview",
      "longitude": "-96.620506286621",
      "streetname": "Sloan",
      "latitude": "33.144584655762",
      "streetnum": "1120",
      "office_name": "Dallas",
      "zipcode": "75069"
    },
    {
      "city": "Dallas",
      "longitude": "-96.945892000000",
      "streetname": "Nutmeg",
      "latitude": "32.624969000000",
      "streetnum": "7155",
      "office_name": "Dallas",
      "zipcode": "75249"
    },
    {
      "city": "Denton",
      "longitude": "-97.097709655800",
      "streetname": "Andalusian",
      "latitude": "33.156269073500",
      "streetnum": "3415",
      "office_name": "Dallas",
      "zipcode": "76210"
    },
    {
      "city": "Duncanville",
      "longitude": "-96.911392000000",
      "streetname": "Cardinal Creek",
      "latitude": "32.635204000000",
      "streetnum": "1427",
      "office_name": "Dallas",
      "zipcode": "75137"
    },
    {
      "city": "Plano",
      "longitude": "-96.692841000000",
      "streetname": "Laurel",
      "latitude": "33.032917000000",
      "streetnum": "1508",
      "office_name": "Dallas",
      "zipcode": "75074"
    },
    {
      "city": "Dallas",
      "longitude": "-96.680404663100",
      "streetname": "Healey",
      "latitude": "32.824901580800",
      "streetnum": "2106",
      "office_name": "Dallas",
      "zipcode": "75228"
    },
    {
      "city": "Carrollton",
      "longitude": "-96.879944000000",
      "streetname": "Barton",
      "latitude": "33.003460000000",
      "streetnum": "3113",
      "office_name": "Dallas",
      "zipcode": "75007"
    },
    {
      "city": "Dallas",
      "longitude": "-96.836387634300",
      "streetname": "Rickover",
      "latitude": "32.917945861800",
      "streetnum": "4244",
      "office_name": "Dallas",
      "zipcode": "75244"
    }
  ],
  [
    {
      "city": "The Colony",
      "longitude": "-96.881271362300",
      "streetname": "Pruitt",
      "latitude": "33.098541259800",
      "streetnum": "5109",
      "office_name": "Denton",
      "zipcode": "75056"
    },
    {
      "city": "Roanoke",
      "longitude": "-97.227600000000",
      "streetname": "Walnut",
      "latitude": "32.996231000000",
      "streetnum": "208",
      "office_name": "Denton",
      "zipcode": "76262"
    },
    {
      "city": "Carrollton",
      "longitude": "-96.892944000000",
      "streetname": "Canterbury",
      "latitude": "32.982285000000",
      "streetnum": "2500",
      "office_name": "Denton",
      "zipcode": "75006"
    }
  ],
  [
    {
      "city": "Fort Worth",
      "longitude": "-97.371475219700",
      "streetname": "Shelby",
      "latitude": "32.697677612300",
      "streetnum": "3632",
      "office_name": "Fort Worth",
      "zipcode": "76109"
    },
    {
      "city": "Fort Worth",
      "longitude": "-97.380615234375",
      "streetname": "El Toro",
      "latitude": "32.649257659912",
      "streetnum": "6450",
      "office_name": "Fort Worth",
      "zipcode": "76133"
    },
    {
      "city": "Dallas",
      "longitude": "-96.651657104500",
      "streetname": "Cedar Mountain",
      "latitude": "32.747268676800",
      "streetnum": "9911",
      "office_name": "Fort Worth",
      "zipcode": "75217"
    },
    {
      "city": "Fort Worth",
      "longitude": "-97.381813049316",
      "streetname": "Whitfield",
      "latitude": "32.677104949951",
      "streetnum": "4116",
      "office_name": "Fort Worth",
      "zipcode": "76109"
    },
    {
      "city": "Fort Worth",
      "longitude": "-97.381058000000",
      "streetname": "Lovell",
      "latitude": "32.731197000000",
      "streetnum": "4210",
      "office_name": "Fort Worth",
      "zipcode": "76107"
    },
    {
      "city": "Pilot Point",
      "longitude": "-96.951744079600",
      "streetname": "Liberty",
      "latitude": "33.395111084000",
      "streetnum": "567",
      "office_name": "Fort Worth",
      "zipcode": "76258"
    },
    {
      "city": "Fort Worth",
      "longitude": "-97.378097534200",
      "streetname": "Edgefield",
      "latitude": "32.770828247100",
      "streetnum": "801",
      "office_name": "Fort Worth",
      "zipcode": "76107"
    },
    {
      "city": "PLANO",
      "longitude": "-96.685890197800",
      "streetname": "Redbud",
      "latitude": "33.024711608900",
      "streetnum": "2110",
      "office_name": "Fort Worth",
      "zipcode": "75074"
    },
    {
      "city": "Fort Worth",
      "longitude": "-97.342522000000",
      "streetname": "Ryan",
      "latitude": "32.708748000000",
      "streetnum": "2921",
      "office_name": "Fort Worth",
      "zipcode": "76110"
    },
    {
      "city": "Fort Worth",
      "longitude": "-97.378479003900",
      "streetname": "Mattison",
      "latitude": "32.749969482400",
      "streetnum": "4056",
      "office_name": "Fort Worth",
      "zipcode": "76107"
    },
    {
      "city": "Haltom City",
      "longitude": "-97.275352000000",
      "streetname": "Vicki",
      "latitude": "32.816746000000",
      "streetnum": "4929",
      "office_name": "Fort Worth",
      "zipcode": "76117"
    },
    {
      "city": "Azle",
      "longitude": "-97.541466000000",
      "streetname": "Inwood",
      "latitude": "32.898693000000",
      "streetnum": "408",
      "office_name": "Fort Worth",
      "zipcode": "76020"
    },
    {
      "city": "Fort Worth",
      "longitude": "-97.390709000000",
      "streetname": "Macie",
      "latitude": "32.795815000000",
      "streetnum": "4800",
      "office_name": "Fort Worth",
      "zipcode": "76114"
    },
    {
      "city": "Arlington",
      "longitude": "-97.141205000000",
      "streetname": "Riverforest",
      "latitude": "32.672768000000",
      "streetnum": "2007",
      "office_name": "Fort Worth",
      "zipcode": "76017"
    },
    {
      "city": "Weatherford",
      "longitude": "-97.788732647900",
      "streetname": "Mill",
      "latitude": "32.763197198500",
      "streetnum": "408",
      "office_name": "Fort Worth",
      "zipcode": "76086"
    },
    {
      "city": "The Colony",
      "longitude": "-96.869652000000",
      "streetname": "Ramsey",
      "latitude": "33.097168000000",
      "streetnum": "5541",
      "office_name": "Fort Worth",
      "zipcode": "75056"
    },
    {
      "city": "North Richland Hills",
      "longitude": "-97.234482000000",
      "streetname": "Fair Meadows",
      "latitude": "32.879478000000",
      "streetnum": "6753",
      "office_name": "Fort Worth",
      "zipcode": "76182"
    },
    {
      "city": "Cleburne",
      "longitude": "-97.397781000000",
      "streetname": "Featherston",
      "latitude": "32.341385000000",
      "streetnum": "802",
      "office_name": "Fort Worth",
      "zipcode": "76033"
    },
    {
      "city": "Hurst",
      "longitude": "-97.175689697266",
      "streetname": "Hurstview",
      "latitude": "32.813770294189",
      "streetnum": "313",
      "office_name": "Fort Worth",
      "zipcode": "76053"
    },
    {
      "city": "Haltom City",
      "longitude": "-97.284882000000",
      "streetname": "Eastridge",
      "latitude": "32.815754000000",
      "streetnum": "3612",
      "office_name": "Fort Worth",
      "zipcode": "76117"
    },
    {
      "city": "Fort Worth",
      "longitude": "-97.315994000000",
      "streetname": "Bluebird",
      "latitude": "32.788307000000",
      "streetnum": "2020",
      "office_name": "Fort Worth",
      "zipcode": "76111"
    },
    {
      "city": "Fort Worth",
      "longitude": "-97.220459000000",
      "streetname": "Warrington",
      "latitude": "32.757816000000",
      "streetnum": "6404",
      "office_name": "Fort Worth",
      "zipcode": "76112"
    },
    {
      "city": "Cleburne",
      "longitude": "-97.391945000000",
      "streetname": "FEATHERSTON",
      "latitude": "32.344032000000",
      "streetnum": "308",
      "office_name": "Fort Worth",
      "zipcode": "76033"
    },
    {
      "city": "Arlington",
      "longitude": "-97.071853637695",
      "streetname": "Mitchell",
      "latitude": "32.725135803223",
      "streetnum": "2131",
      "office_name": "Fort Worth",
      "zipcode": "76010"
    }
  ],
  [
    {
      "city": "HOUSTON",
      "longitude": "-95.578062000000",
      "streetname": "WICKERSHAM LN",
      "latitude": "29.738389000000",
      "streetnum": "11415",
      "office_name": "Houston Central",
      "zipcode": "77077"
    },
    {
      "city": "Houston",
      "longitude": "-95.537345886230",
      "streetname": "Belinda Court",
      "latitude": "29.976919174194",
      "streetnum": "13619",
      "office_name": "Houston Central",
      "zipcode": "77069"
    },
    {
      "city": "Houston",
      "longitude": "-95.470070000000",
      "streetname": "Kinglet",
      "latitude": "29.659883000000",
      "streetnum": "5115",
      "office_name": "Houston Central",
      "zipcode": "77035"
    },
    {
      "city": "Houston",
      "longitude": "-95.544441000000",
      "streetname": "Hendon",
      "latitude": "29.694319000000",
      "streetnum": "9039",
      "office_name": "Houston Central",
      "zipcode": "77036"
    },
    {
      "city": "HOUSTON",
      "longitude": "-95.492523000000",
      "streetname": "HILLCROFT ST",
      "latitude": "29.658812000000",
      "streetnum": "11102",
      "office_name": "Houston Central",
      "zipcode": "77096"
    },
    {
      "city": "Houston",
      "longitude": "-95.369628000000",
      "streetname": "Southmore",
      "latitude": "29.717479000000",
      "streetnum": "3102",
      "office_name": "Houston Central",
      "zipcode": "77004"
    },
    {
      "city": "Pasadena",
      "longitude": "-95.184036000000",
      "streetname": "Effie",
      "latitude": "29.687915000000",
      "streetnum": "1602",
      "office_name": "Houston Central",
      "zipcode": "77502"
    },
    {
      "city": "Missouri City",
      "longitude": "-95.536163330078",
      "streetname": "Fountain Valley",
      "latitude": "29.569917678833",
      "streetnum": "2126",
      "office_name": "Houston Central",
      "zipcode": "77459"
    },
    {
      "city": "The Woodlands",
      "longitude": "-95.469734000000",
      "streetname": "Yellowood Ct",
      "latitude": "30.147005000000",
      "streetnum": "3",
      "office_name": "Houston Central",
      "zipcode": "77380"
    },
    {
      "city": "Willis",
      "longitude": "-95.565696716309",
      "streetname": "Sunfish Road",
      "latitude": "30.469800949097",
      "streetnum": "15639",
      "office_name": "Houston Central",
      "zipcode": "77318"
    },
    {
      "city": "HOUSTON",
      "longitude": "-95.674774000000",
      "streetname": "Espinosa",
      "latitude": "29.698954000000",
      "streetnum": "16330",
      "office_name": "Houston Central",
      "zipcode": "77083"
    },
    {
      "city": "Pasadena",
      "longitude": "-95.064377000000",
      "streetname": "Shirleen Dr",
      "latitude": "29.568871000000",
      "streetnum": "307",
      "office_name": "Houston Central",
      "zipcode": "77586"
    }
  ],
  [
    {
      "city": "Whittier",
      "longitude": "-118.016075000000",
      "streetname": "Tedemory",
      "latitude": "33.960850000000",
      "streetnum": "14429",
      "office_name": "Los Angeles",
      "zipcode": "90605"
    },
    {
      "city": "Alhambra",
      "longitude": "-118.119736000000",
      "streetname": "El Molino",
      "latitude": "34.105747000000",
      "streetnum": "529",
      "office_name": "Los Angeles",
      "zipcode": "91801"
    },
    {
      "city": "Covina",
      "longitude": "-117.860359000000",
      "streetname": "Buenos Aires",
      "latitude": "34.060371000000",
      "streetnum": "2349",
      "office_name": "Los Angeles",
      "zipcode": "91724"
    },
    {
      "city": "Pasadena",
      "longitude": "-118.105759000000",
      "streetname": "Villa",
      "latitude": "34.154686000000",
      "streetnum": "2165",
      "office_name": "Los Angeles",
      "zipcode": "91107"
    },
    {
      "city": "Santa Ana",
      "longitude": "-117.806617736820",
      "streetname": "Vale",
      "latitude": "33.770603179932",
      "streetnum": "18682",
      "office_name": "Los Angeles",
      "zipcode": "92705"
    },
    {
      "city": "Pasadena",
      "longitude": "-118.158119000000",
      "streetname": "Newport",
      "latitude": "34.175720000000",
      "streetnum": "1744",
      "office_name": "Los Angeles",
      "zipcode": "91103"
    },
    {
      "city": "Sierra Madre",
      "longitude": "-118.032351000000",
      "streetname": "Santa Anita",
      "latitude": "34.168773000000",
      "streetnum": "2161",
      "office_name": "Los Angeles",
      "zipcode": "91024"
    }
  ],
  [
    {
      "city": "PHILADELPHIA",
      "longitude": "-75.157024800000",
      "streetname": "DICKINSON",
      "latitude": "39.930252800000",
      "streetnum": "702",
      "office_name": "Philadelphia",
      "zipcode": "19147"
    },
    {
      "city": "PHILADELPHIA",
      "longitude": "0.000000000000",
      "streetname": "MERCY",
      "latitude": "0.000000000000",
      "streetnum": "415",
      "office_name": "Philadelphia",
      "zipcode": "19148"
    },
    {
      "city": "Philadelphia",
      "longitude": "-75.158040001988",
      "streetname": "S 8th",
      "latitude": "39.930965602398",
      "streetnum": "1430",
      "office_name": "Philadelphia",
      "zipcode": "19147"
    }
  ],
  [
    {
      "city": "San Antonio",
      "longitude": "-98.446678161621",
      "streetname": "OAK PEAK",
      "latitude": "29.631807327271",
      "streetnum": "2131",
      "office_name": "San Antonio",
      "zipcode": "78259"
    },
    {
      "city": "San Antonio",
      "longitude": "-98.413200378418",
      "streetname": "TROPICAL DR",
      "latitude": "29.492595672607",
      "streetnum": "4107",
      "office_name": "San Antonio",
      "zipcode": "78218"
    },
    {
      "city": "San Antonio",
      "longitude": "-98.454307556152",
      "streetname": "KAYTON AVE",
      "latitude": "29.397705078125",
      "streetnum": "1001",
      "office_name": "San Antonio",
      "zipcode": "78210"
    },
    {
      "city": "San Antonio",
      "longitude": "-98.503227233887",
      "streetname": "Mistletoe Ave",
      "latitude": "29.453563690186",
      "streetnum": "610",
      "office_name": "San Antonio",
      "zipcode": "78212"
    },
    {
      "city": "San Antonio",
      "longitude": "-98.426010000000",
      "streetname": "JENKINS DR",
      "latitude": "29.574848000000",
      "streetnum": "3219",
      "office_name": "San Antonio",
      "zipcode": "78247"
    },
    {
      "city": "San Antonio",
      "longitude": "-98.605431000000",
      "streetname": "DASHWOOD",
      "latitude": "29.504587000000",
      "streetnum": "7719",
      "office_name": "San Antonio",
      "zipcode": "78240"
    },
    {
      "city": "San Antonio",
      "longitude": "-98.493621826172",
      "streetname": "EMMETT AVE",
      "latitude": "29.335157394409",
      "streetnum": "523",
      "office_name": "San Antonio",
      "zipcode": "78221"
    },
    {
      "city": "San Antonio",
      "longitude": "-98.499637395144",
      "streetname": "Hollywood Ave",
      "latitude": "29.463974833488",
      "streetnum": "412",
      "office_name": "San Antonio",
      "zipcode": "78212"
    },
    {
      "city": "San Antonio",
      "longitude": "-98.540184020996",
      "streetname": "Craig Pl",
      "latitude": "29.454532623291",
      "streetnum": "2619",
      "office_name": "San Antonio",
      "zipcode": "78228"
    },
    {
      "city": "San Antonio",
      "longitude": "NULL",
      "streetname": "Galaxy Dr",
      "latitude": "NULL",
      "streetnum": "154",
      "office_name": "San Antonio",
      "zipcode": "78227"
    },
    {
      "city": "San Antonio",
      "longitude": "-98.456139000000",
      "streetname": "VINE ST",
      "latitude": "29.408689000000",
      "streetnum": "210",
      "office_name": "San Antonio",
      "zipcode": "78210"
    },
    {
      "city": "San Antonio",
      "longitude": "-98.447349548340",
      "streetname": "Larkwood",
      "latitude": "29.501754760742",
      "streetnum": "614",
      "office_name": "San Antonio",
      "zipcode": "78209"
    },
    {
      "city": "San Antonio",
      "longitude": "-98.452759000000",
      "streetname": "RIDGEHAVEN PL",
      "latitude": "29.497286000000",
      "streetnum": "327",
      "office_name": "San Antonio",
      "zipcode": "78209"
    },
    {
      "city": "San Antonio",
      "longitude": "-98.670967000000",
      "streetname": "Autumn Shade",
      "latitude": "29.528824000000",
      "streetnum": "9542",
      "office_name": "San Antonio",
      "zipcode": "78254"
    },
    {
      "city": "San Antonio",
      "longitude": "-98.565918000000",
      "streetname": "CRESTRIDGE DR",
      "latitude": "29.490225000000",
      "streetnum": "3906",
      "office_name": "San Antonio",
      "zipcode": "78229"
    },
    {
      "city": "San Antonio",
      "longitude": "-98.466552734375",
      "streetname": "Dawson",
      "latitude": "29.426603317261",
      "streetnum": "1033",
      "office_name": "San Antonio",
      "zipcode": "78202"
    },
    {
      "city": "San Antonio",
      "longitude": "-98.417183000000",
      "streetname": "STARHILL DR",
      "latitude": "29.512920000000",
      "streetnum": "3939",
      "office_name": "San Antonio",
      "zipcode": "78218"
    },
    {
      "city": "San Antonio",
      "longitude": "-98.656677246094",
      "streetname": "TIMBERWILDE ST",
      "latitude": "29.488285064697",
      "streetnum": "8727",
      "office_name": "San Antonio",
      "zipcode": "78250"
    },
    {
      "city": "San Antonio",
      "longitude": "-98.571877000000",
      "streetname": "ROLLING GREEN DR",
      "latitude": "29.475540000000",
      "streetnum": "135",
      "office_name": "San Antonio",
      "zipcode": "78228"
    },
    {
      "city": "San Antonio",
      "longitude": "-98.501167297363",
      "streetname": "ROSEWOOD AVE",
      "latitude": "29.465063095093",
      "streetnum": "503",
      "office_name": "San Antonio",
      "zipcode": "78212"
    },
    {
      "city": "San Antonio",
      "longitude": "-98.472740000000",
      "streetname": "Lamar",
      "latitude": "29.431749000000",
      "streetnum": "511",
      "office_name": "San Antonio",
      "zipcode": "78202"
    }
  ]
]
